{
  "type": "FeatureCollection",
  "name": "CutoffMeasuredSections",
  "crs": {
    "type": "name",
    "properties": {
      "name": "urn:ogc:def:crs:OGC:1.3:CRS84"
    }
  },
  "features": [
    {
      "type": "Feature",
      "geometry": {
        "type": "MultiLineString",
        "coordinates": [
          [
            [
              -104.76545903949099,
              31.67253735331881
            ],
            [
              -104.76554940629491,
              31.67265526049819
            ],
            [
              -104.76561643363713,
              31.672707074680606
            ],
            [
              -104.76570027175211,
              31.672750304345623
            ],
            [
              -104.7657664003757,
              31.672783899151575
            ],
            [
              -104.76580425695073,
              31.67279357080751
            ],
            [
              -104.76589154630071,
              31.672799473931807
            ],
            [
              -104.7660425628512,
              31.67283421093751
            ],
            [
              -104.76605262202487,
              31.67283997281381
            ],
            [
              -104.76605260052395,
              31.67284858801946
            ],
            [
              -104.76602568765823,
              31.672868641081738
            ],
            [
              -104.76601558547448,
              31.672880109614482
            ],
            [
              -104.7660189146399,
              31.672891602691337
            ],
            [
              -104.76603900432818,
              31.672914613387576
            ],
            [
              -104.76607924106379,
              31.672937660889147
            ],
            [
              -104.76611949214916,
              31.672954964907746
            ],
            [
              -104.76618324813535,
              31.672972311838148
            ],
            [
              -104.76624366778731,
              31.67298103740108
            ],
            [
              -104.76630745245143,
              31.672986897328787
            ],
            [
              -104.7663712585955,
              31.672984142018944
            ],
            [
              -104.76641156700344,
              31.672978472063825
            ],
            [
              -104.76643844404289,
              31.67297277759647
            ],
            [
              -104.76646850721693,
              31.67303601089397
            ],
            [
              -104.76648854697075,
              31.673079123666582
            ],
            [
              -104.7665220038227,
              31.673128004398563
            ],
            [
              -104.76654208653305,
              31.67315388675123
            ]
          ]
        ]
      },
      "properties": {
        "Abbrev": null,
        "Alpha": null,
        "Area": null,
        "CS_ID": null,
        "CYCLE": null,
        "CycleDsolv": null,
        "DESCRIPT": null,
        "FEATUREKEY": null,
        "FEATUREK_1": null,
        "FEATURETYP": null,
        "FID_": null,
        "FID_Cross_": null,
        "FID_FanGeo": null,
        "FID_Fan_De": null,
        "FID_GIS_Re": null,
        "FID_Photo_": null,
        "FID_ftrip_": null,
        "FID_measur": null,
        "FID_patter": null,
        "FOURTH_ORD": null,
        "FOURTH_O_1": null,
        "FanID": null,
        "Fan_Del": null,
        "Fan_Del_sh": null,
        "FeatureT_1": null,
        "Geo_short": null,
        "Geography": null,
        "Gradient": null,
        "Hyperlink": null,
        "ID": null,
        "Id": 0,
        "Id_1": null,
        "LENGTH": null,
        "Location": null,
        "MAPSYMBOL": null,
        "MAP_SYMBOL": null,
        "MS_ID": null,
        "MidptX": null,
        "MidptY": null,
        "Mod_names": null,
        "NAME": null,
        "NAME_1": null,
        "Name": "1a-Colleen East Lower",
        "OBJECTID": null,
        "OBJECTID_1": null,
        "ORDERBY": null,
        "ORIG_FID": null,
        "Offset": null,
        "PATTERNID": null,
        "PERSON": null,
        "PMLABEL": null,
        "PM_NAME": null,
        "PM_NAME_NE": null,
        "Pattern": null,
        "Profile": null,
        "REGION": null,
        "SECTIONARC": null,
        "SECTION_AB": null,
        "SOURCE": null,
        "STRAT_INTE": null,
        "SectionArc": null,
        "Shape_Ar_1": null,
        "Shape_Area": null,
        "Shape_Le_1": null,
        "Shape_Leng": null,
        "Shape_Length": null,
        "Stop": null,
        "Stop_Num": null,
        "Symbology": null
      }
    },
    {
      "type": "Feature",
      "geometry": {
        "type": "MultiLineString",
        "coordinates": [
          [
            [
              -104.7681500876035,
              31.67185704428367
            ],
            [
              -104.76815696563538,
              31.671930369026217
            ],
            [
              -104.7681518848455,
              31.671945884782236
            ],
            [
              -104.76819211096091,
              31.67199166997791
            ],
            [
              -104.76828686324643,
              31.672009953920497
            ],
            [
              -104.76852458116022,
              31.6721250960329
            ]
          ]
        ]
      },
      "properties": {
        "Abbrev": null,
        "Alpha": null,
        "Area": null,
        "CS_ID": null,
        "CYCLE": null,
        "CycleDsolv": null,
        "DESCRIPT": null,
        "FEATUREKEY": null,
        "FEATUREK_1": null,
        "FEATURETYP": null,
        "FID_": null,
        "FID_Cross_": null,
        "FID_FanGeo": null,
        "FID_Fan_De": null,
        "FID_GIS_Re": null,
        "FID_Photo_": null,
        "FID_ftrip_": null,
        "FID_measur": null,
        "FID_patter": null,
        "FOURTH_ORD": null,
        "FOURTH_O_1": null,
        "FanID": null,
        "Fan_Del": null,
        "Fan_Del_sh": null,
        "FeatureT_1": null,
        "Geo_short": null,
        "Geography": null,
        "Gradient": null,
        "Hyperlink": null,
        "ID": null,
        "Id": 0,
        "Id_1": null,
        "LENGTH": null,
        "Location": null,
        "MAPSYMBOL": null,
        "MAP_SYMBOL": null,
        "MS_ID": null,
        "MidptX": null,
        "MidptY": null,
        "Mod_names": null,
        "NAME": null,
        "NAME_1": null,
        "Name": "2a-Colleen West Lower",
        "OBJECTID": null,
        "OBJECTID_1": null,
        "ORDERBY": null,
        "ORIG_FID": null,
        "Offset": null,
        "PATTERNID": null,
        "PERSON": null,
        "PMLABEL": null,
        "PM_NAME": null,
        "PM_NAME_NE": null,
        "Pattern": null,
        "Profile": null,
        "REGION": null,
        "SECTIONARC": null,
        "SECTION_AB": null,
        "SOURCE": null,
        "STRAT_INTE": null,
        "SectionArc": null,
        "Shape_Ar_1": null,
        "Shape_Area": null,
        "Shape_Le_1": null,
        "Shape_Leng": null,
        "Shape_Length": null,
        "Stop": null,
        "Stop_Num": null,
        "Symbology": null
      }
    },
    {
      "type": "Feature",
      "geometry": {
        "type": "MultiLineString",
        "coordinates": [
          [
            [
              -104.76852457903048,
              31.672125958526564
            ],
            [
              -104.76861415073336,
              31.672200295199605
            ],
            [
              -104.76881369608223,
              31.672254992965797
            ],
            [
              -104.76891956545109,
              31.672263809038096
            ],
            [
              -104.76899208690708,
              31.672300164786115
            ],
            [
              -104.76906757012577,
              31.67236240075959
            ],
            [
              -104.7691724290337,
              31.672372077297883
            ],
            [
              -104.76924597826405,
              31.67240067227713
            ],
            [
              -104.76931944476364,
              31.672462904467686
            ],
            [
              -104.76941408742685,
              31.67252603724818
            ],
            [
              -104.76948479612528,
              31.672561526954958
            ],
            [
              -104.7696459079526,
              31.672661866596666
            ],
            [
              -104.7697517079524,
              31.67269914427333
            ],
            [
              -104.76993752856208,
              31.672840496604998
            ]
          ]
        ]
      },
      "properties": {
        "Abbrev": null,
        "Alpha": null,
        "Area": null,
        "CS_ID": null,
        "CYCLE": null,
        "CycleDsolv": null,
        "DESCRIPT": null,
        "FEATUREKEY": null,
        "FEATUREK_1": null,
        "FEATURETYP": null,
        "FID_": null,
        "FID_Cross_": null,
        "FID_FanGeo": null,
        "FID_Fan_De": null,
        "FID_GIS_Re": null,
        "FID_Photo_": null,
        "FID_ftrip_": null,
        "FID_measur": null,
        "FID_patter": null,
        "FOURTH_ORD": null,
        "FOURTH_O_1": null,
        "FanID": null,
        "Fan_Del": null,
        "Fan_Del_sh": null,
        "FeatureT_1": null,
        "Geo_short": null,
        "Geography": null,
        "Gradient": null,
        "Hyperlink": null,
        "ID": null,
        "Id": 0,
        "Id_1": null,
        "LENGTH": null,
        "Location": null,
        "MAPSYMBOL": null,
        "MAP_SYMBOL": null,
        "MS_ID": null,
        "MidptX": null,
        "MidptY": null,
        "Mod_names": null,
        "NAME": null,
        "NAME_1": null,
        "Name": "2b-Colleen West Upper",
        "OBJECTID": null,
        "OBJECTID_1": null,
        "ORDERBY": null,
        "ORIG_FID": null,
        "Offset": null,
        "PATTERNID": null,
        "PERSON": null,
        "PMLABEL": null,
        "PM_NAME": null,
        "PM_NAME_NE": null,
        "Pattern": null,
        "Profile": null,
        "REGION": null,
        "SECTIONARC": null,
        "SECTION_AB": null,
        "SOURCE": null,
        "STRAT_INTE": null,
        "SectionArc": null,
        "Shape_Ar_1": null,
        "Shape_Area": null,
        "Shape_Le_1": null,
        "Shape_Leng": null,
        "Shape_Length": null,
        "Stop": null,
        "Stop_Num": null,
        "Symbology": null
      }
    },
    {
      "type": "Feature",
      "geometry": {
        "type": "MultiLineString",
        "coordinates": [
          [
            [
              -104.76654359214945,
              31.67315207213073
            ],
            [
              -104.76658475952819,
              31.67317974709659
            ],
            [
              -104.76662236026822,
              31.673199748906082
            ],
            [
              -104.76675470108823,
              31.67333338962796
            ],
            [
              -104.76681016204648,
              31.6733810238279
            ],
            [
              -104.76690144633277,
              31.673442523180984
            ],
            [
              -104.76701067860319,
              31.673496388486914
            ],
            [
              -104.76720587793282,
              31.673587209909343
            ],
            [
              -104.76726853364586,
              31.67362565702044
            ],
            [
              -104.76740641444272,
              31.673694907341957
            ],
            [
              -104.7675532484663,
              31.67376877375417
            ],
            [
              -104.76771265193233,
              31.673834996159425
            ],
            [
              -104.76778785063857,
              31.673876532427315
            ],
            [
              -104.7678790980801,
              31.673953364299482
            ]
          ]
        ]
      },
      "properties": {
        "Abbrev": null,
        "Alpha": null,
        "Area": null,
        "CS_ID": null,
        "CYCLE": null,
        "CycleDsolv": null,
        "DESCRIPT": null,
        "FEATUREKEY": null,
        "FEATUREK_1": null,
        "FEATURETYP": null,
        "FID_": null,
        "FID_Cross_": null,
        "FID_FanGeo": null,
        "FID_Fan_De": null,
        "FID_GIS_Re": null,
        "FID_Photo_": null,
        "FID_ftrip_": null,
        "FID_measur": null,
        "FID_patter": null,
        "FOURTH_ORD": null,
        "FOURTH_O_1": null,
        "FanID": null,
        "Fan_Del": null,
        "Fan_Del_sh": null,
        "FeatureT_1": null,
        "Geo_short": null,
        "Geography": null,
        "Gradient": null,
        "Hyperlink": null,
        "ID": null,
        "Id": 0,
        "Id_1": null,
        "LENGTH": null,
        "Location": null,
        "MAPSYMBOL": null,
        "MAP_SYMBOL": null,
        "MS_ID": null,
        "MidptX": null,
        "MidptY": null,
        "Mod_names": null,
        "NAME": null,
        "NAME_1": null,
        "Name": "1b-Colleen East Upper",
        "OBJECTID": null,
        "OBJECTID_1": null,
        "ORDERBY": null,
        "ORIG_FID": null,
        "Offset": null,
        "PATTERNID": null,
        "PERSON": null,
        "PMLABEL": null,
        "PM_NAME": null,
        "PM_NAME_NE": null,
        "Pattern": null,
        "Profile": null,
        "REGION": null,
        "SECTIONARC": null,
        "SECTION_AB": null,
        "SOURCE": null,
        "STRAT_INTE": null,
        "SectionArc": null,
        "Shape_Ar_1": null,
        "Shape_Area": null,
        "Shape_Le_1": null,
        "Shape_Leng": null,
        "Shape_Length": null,
        "Stop": null,
        "Stop_Num": null,
        "Symbology": null
      }
    },
    {
      "type": "Feature",
      "geometry": {
        "type": "MultiLineString",
        "coordinates": [
          [
            [
              -104.77224400730664,
              31.686093362748487
            ],
            [
              -104.77191835313911,
              31.685873625143632
            ],
            [
              -104.77139870411654,
              31.685587128952395
            ],
            [
              -104.77131282059057,
              31.6857729275584
            ],
            [
              -104.77117677165633,
              31.685829134134018
            ],
            [
              -104.77103682315204,
              31.685891974730847
            ],
            [
              -104.77093571438708,
              31.68595156411468
            ],
            [
              -104.77088513559568,
              31.685991320446934
            ],
            [
              -104.77083062484418,
              31.686050993147713
            ],
            [
              -104.77080722013606,
              31.68609411866999
            ],
            [
              -104.77080326384063,
              31.68612399672869
            ],
            [
              -104.77088083827047,
              31.686160661899926
            ]
          ],
          [
            [
              -104.77088472145975,
              31.686160668850977
            ],
            [
              -104.77079140306255,
              31.686210310346276
            ],
            [
              -104.77069428264464,
              31.686226739247566
            ],
            [
              -104.7706438336648,
              31.686213366572094
            ],
            [
              -104.7705585416968,
              31.686156763995072
            ],
            [
              -104.77047713301856,
              31.68610016832468
            ],
            [
              -104.77043843946606,
              31.68604364921949
            ],
            [
              -104.77041915373314,
              31.685990485486204
            ],
            [
              -104.77028298997027,
              31.686093178895124
            ]
          ]
        ]
      },
      "properties": {
        "Abbrev": null,
        "Alpha": null,
        "Area": null,
        "CS_ID": null,
        "CYCLE": null,
        "CycleDsolv": null,
        "DESCRIPT": null,
        "FEATUREKEY": null,
        "FEATUREK_1": null,
        "FEATURETYP": null,
        "FID_": null,
        "FID_Cross_": null,
        "FID_FanGeo": null,
        "FID_Fan_De": null,
        "FID_GIS_Re": null,
        "FID_Photo_": null,
        "FID_ftrip_": null,
        "FID_measur": null,
        "FID_patter": null,
        "FOURTH_ORD": null,
        "FOURTH_O_1": null,
        "FanID": null,
        "Fan_Del": null,
        "Fan_Del_sh": null,
        "FeatureT_1": null,
        "Geo_short": null,
        "Geography": null,
        "Gradient": null,
        "Hyperlink": null,
        "ID": null,
        "Id": 0,
        "Id_1": null,
        "LENGTH": null,
        "Location": null,
        "MAPSYMBOL": null,
        "MAP_SYMBOL": null,
        "MS_ID": null,
        "MidptX": null,
        "MidptY": null,
        "Mod_names": null,
        "NAME": null,
        "NAME_1": null,
        "Name": "3a-Vertigo Lower",
        "OBJECTID": null,
        "OBJECTID_1": null,
        "ORDERBY": null,
        "ORIG_FID": null,
        "Offset": null,
        "PATTERNID": null,
        "PERSON": null,
        "PMLABEL": null,
        "PM_NAME": null,
        "PM_NAME_NE": null,
        "Pattern": null,
        "Profile": null,
        "REGION": null,
        "SECTIONARC": null,
        "SECTION_AB": null,
        "SOURCE": null,
        "STRAT_INTE": null,
        "SectionArc": null,
        "Shape_Ar_1": null,
        "Shape_Area": null,
        "Shape_Le_1": null,
        "Shape_Leng": null,
        "Shape_Length": null,
        "Stop": null,
        "Stop_Num": null,
        "Symbology": null
      }
    },
    {
      "type": "Feature",
      "geometry": {
        "type": "MultiLineString",
        "coordinates": [
          [
            [
              -104.76952306990705,
              31.685610329936548
            ],
            [
              -104.76929030888746,
              31.68551693460047
            ],
            [
              -104.76915044141555,
              31.685546567558415
            ],
            [
              -104.76897578912998,
              31.68550972615458
            ],
            [
              -104.76882410822034,
              31.685605748857963
            ],
            [
              -104.76868430605653,
              31.685608816850504
            ],
            [
              -104.76851724788713,
              31.685641720540264
            ],
            [
              -104.76843149813492,
              31.68577106770565
            ],
            [
              -104.76828759902499,
              31.685860462698397
            ],
            [
              -104.76803130118145,
              31.68586331902065
            ],
            [
              -104.76791861504509,
              31.68589299988107
            ],
            [
              -104.76785247761522,
              31.68594268850453
            ],
            [
              -104.76775814668461,
              31.685983927591778
            ]
          ]
        ]
      },
      "properties": {
        "Abbrev": null,
        "Alpha": null,
        "Area": null,
        "CS_ID": null,
        "CYCLE": null,
        "CycleDsolv": null,
        "DESCRIPT": null,
        "FEATUREKEY": null,
        "FEATUREK_1": null,
        "FEATURETYP": null,
        "FID_": null,
        "FID_Cross_": null,
        "FID_FanGeo": null,
        "FID_Fan_De": null,
        "FID_GIS_Re": null,
        "FID_Photo_": null,
        "FID_ftrip_": null,
        "FID_measur": null,
        "FID_patter": null,
        "FOURTH_ORD": null,
        "FOURTH_O_1": null,
        "FanID": null,
        "Fan_Del": null,
        "Fan_Del_sh": null,
        "FeatureT_1": null,
        "Geo_short": null,
        "Geography": null,
        "Gradient": null,
        "Hyperlink": null,
        "ID": null,
        "Id": 0,
        "Id_1": null,
        "LENGTH": null,
        "Location": null,
        "MAPSYMBOL": null,
        "MAP_SYMBOL": null,
        "MS_ID": null,
        "MidptX": null,
        "MidptY": null,
        "Mod_names": null,
        "NAME": null,
        "NAME_1": null,
        "Name": "3b-Vertigo Upper",
        "OBJECTID": null,
        "OBJECTID_1": null,
        "ORDERBY": null,
        "ORIG_FID": null,
        "Offset": null,
        "PATTERNID": null,
        "PERSON": null,
        "PMLABEL": null,
        "PM_NAME": null,
        "PM_NAME_NE": null,
        "Pattern": null,
        "Profile": null,
        "REGION": null,
        "SECTIONARC": null,
        "SECTION_AB": null,
        "SOURCE": null,
        "STRAT_INTE": null,
        "SectionArc": null,
        "Shape_Ar_1": null,
        "Shape_Area": null,
        "Shape_Le_1": null,
        "Shape_Leng": null,
        "Shape_Length": null,
        "Stop": null,
        "Stop_Num": null,
        "Symbology": null
      }
    },
    {
      "type": "Feature",
      "geometry": {
        "type": "MultiLineString",
        "coordinates": [
          [
            [
              -104.77535139833894,
              31.694776854952803
            ],
            [
              -104.77486672121783,
              31.694587162499484
            ],
            [
              -104.77481615007218,
              31.694422443176535
            ],
            [
              -104.7747444577228,
              31.6944061767714
            ],
            [
              -104.77466715289515,
              31.694368918144562
            ],
            [
              -104.7746277566931,
              31.694267165318593
            ],
            [
              -104.7745320106174,
              31.69404910354981
            ]
          ]
        ]
      },
      "properties": {
        "Abbrev": null,
        "Alpha": null,
        "Area": null,
        "CS_ID": null,
        "CYCLE": null,
        "CycleDsolv": null,
        "DESCRIPT": null,
        "FEATUREKEY": null,
        "FEATUREK_1": null,
        "FEATURETYP": null,
        "FID_": null,
        "FID_Cross_": null,
        "FID_FanGeo": null,
        "FID_Fan_De": null,
        "FID_GIS_Re": null,
        "FID_Photo_": null,
        "FID_ftrip_": null,
        "FID_measur": null,
        "FID_patter": null,
        "FOURTH_ORD": null,
        "FOURTH_O_1": null,
        "FanID": null,
        "Fan_Del": null,
        "Fan_Del_sh": null,
        "FeatureT_1": null,
        "Geo_short": null,
        "Geography": null,
        "Gradient": null,
        "Hyperlink": null,
        "ID": null,
        "Id": 0,
        "Id_1": null,
        "LENGTH": null,
        "Location": null,
        "MAPSYMBOL": null,
        "MAP_SYMBOL": null,
        "MS_ID": null,
        "MidptX": null,
        "MidptY": null,
        "Mod_names": null,
        "NAME": null,
        "NAME_1": null,
        "Name": "4a-Rock Art South Lower",
        "OBJECTID": null,
        "OBJECTID_1": null,
        "ORDERBY": null,
        "ORIG_FID": null,
        "Offset": null,
        "PATTERNID": null,
        "PERSON": null,
        "PMLABEL": null,
        "PM_NAME": null,
        "PM_NAME_NE": null,
        "Pattern": null,
        "Profile": null,
        "REGION": null,
        "SECTIONARC": null,
        "SECTION_AB": null,
        "SOURCE": null,
        "STRAT_INTE": null,
        "SectionArc": null,
        "Shape_Ar_1": null,
        "Shape_Area": null,
        "Shape_Le_1": null,
        "Shape_Leng": null,
        "Shape_Length": null,
        "Stop": null,
        "Stop_Num": null,
        "Symbology": null
      }
    },
    {
      "type": "Feature",
      "geometry": {
        "type": "MultiLineString",
        "coordinates": [
          [
            [
              -104.77453011907713,
              31.69405071424021
            ],
            [
              -104.77455141942747,
              31.693828016579708
            ],
            [
              -104.77456283856715,
              31.693789300141237
            ],
            [
              -104.77462560482721,
              31.69359249986952
            ],
            [
              -104.77470720841403,
              31.693411872955753
            ],
            [
              -104.77482087049324,
              31.69324421458241
            ],
            [
              -104.77490420199648,
              31.69312976552656
            ],
            [
              -104.77498942092973,
              31.693015319731636
            ],
            [
              -104.77503695679886,
              31.692871755219386
            ],
            [
              -104.77507503112435,
              31.69273785819737
            ],
            [
              -104.77510939596871,
              31.69257651624263
            ],
            [
              -104.77511891934782,
              31.692541024460276
            ],
            [
              -104.77514566768829,
              31.692407107506476
            ],
            [
              -104.7751442334032,
              31.69221826422874
            ],
            [
              -104.77512569434535,
              31.692077811600626
            ],
            [
              -104.77512364495517,
              31.691955695285763
            ]
          ]
        ]
      },
      "properties": {
        "Abbrev": null,
        "Alpha": null,
        "Area": null,
        "CS_ID": null,
        "CYCLE": null,
        "CycleDsolv": null,
        "DESCRIPT": null,
        "FEATUREKEY": null,
        "FEATUREK_1": null,
        "FEATURETYP": null,
        "FID_": null,
        "FID_Cross_": null,
        "FID_FanGeo": null,
        "FID_Fan_De": null,
        "FID_GIS_Re": null,
        "FID_Photo_": null,
        "FID_ftrip_": null,
        "FID_measur": null,
        "FID_patter": null,
        "FOURTH_ORD": null,
        "FOURTH_O_1": null,
        "FanID": null,
        "Fan_Del": null,
        "Fan_Del_sh": null,
        "FeatureT_1": null,
        "Geo_short": null,
        "Geography": null,
        "Gradient": null,
        "Hyperlink": null,
        "ID": null,
        "Id": 0,
        "Id_1": null,
        "LENGTH": null,
        "Location": null,
        "MAPSYMBOL": null,
        "MAP_SYMBOL": null,
        "MS_ID": null,
        "MidptX": null,
        "MidptY": null,
        "Mod_names": null,
        "NAME": null,
        "NAME_1": null,
        "Name": "4b-Rock Art South Upper",
        "OBJECTID": null,
        "OBJECTID_1": null,
        "ORDERBY": null,
        "ORIG_FID": null,
        "Offset": null,
        "PATTERNID": null,
        "PERSON": null,
        "PMLABEL": null,
        "PM_NAME": null,
        "PM_NAME_NE": null,
        "Pattern": null,
        "Profile": null,
        "REGION": null,
        "SECTIONARC": null,
        "SECTION_AB": null,
        "SOURCE": null,
        "STRAT_INTE": null,
        "SectionArc": null,
        "Shape_Ar_1": null,
        "Shape_Area": null,
        "Shape_Le_1": null,
        "Shape_Leng": null,
        "Shape_Length": null,
        "Stop": null,
        "Stop_Num": null,
        "Symbology": null
      }
    },
    {
      "type": "Feature",
      "geometry": {
        "type": "MultiLineString",
        "coordinates": [
          [
            [
              -104.78167215622891,
              31.700201385196888
            ],
            [
              -104.78151492846023,
              31.70019271407741
            ],
            [
              -104.78146081911326,
              31.700216429477347
            ],
            [
              -104.78141984638485,
              31.70022616270583
            ],
            [
              -104.78138052799132,
              31.70022889645299
            ],
            [
              -104.7813559613522,
              31.700227454018812
            ],
            [
              -104.78132324399276,
              31.700209192143728
            ],
            [
              -104.7812807183144,
              31.70018251074161
            ],
            [
              -104.78118571471296,
              31.7001823483154
            ]
          ]
        ]
      },
      "properties": {
        "Abbrev": null,
        "Alpha": null,
        "Area": null,
        "CS_ID": null,
        "CYCLE": null,
        "CycleDsolv": null,
        "DESCRIPT": null,
        "FEATUREKEY": null,
        "FEATUREK_1": null,
        "FEATURETYP": null,
        "FID_": null,
        "FID_Cross_": null,
        "FID_FanGeo": null,
        "FID_Fan_De": null,
        "FID_GIS_Re": null,
        "FID_Photo_": null,
        "FID_ftrip_": null,
        "FID_measur": null,
        "FID_patter": null,
        "FOURTH_ORD": null,
        "FOURTH_O_1": null,
        "FanID": null,
        "Fan_Del": null,
        "Fan_Del_sh": null,
        "FeatureT_1": null,
        "Geo_short": null,
        "Geography": null,
        "Gradient": null,
        "Hyperlink": null,
        "ID": null,
        "Id": 0,
        "Id_1": null,
        "LENGTH": null,
        "Location": null,
        "MAPSYMBOL": null,
        "MAP_SYMBOL": null,
        "MS_ID": null,
        "MidptX": null,
        "MidptY": null,
        "Mod_names": null,
        "NAME": null,
        "NAME_1": null,
        "Name": "6a-Rock Art North Lower",
        "OBJECTID": null,
        "OBJECTID_1": null,
        "ORDERBY": null,
        "ORIG_FID": null,
        "Offset": null,
        "PATTERNID": null,
        "PERSON": null,
        "PMLABEL": null,
        "PM_NAME": null,
        "PM_NAME_NE": null,
        "Pattern": null,
        "Profile": null,
        "REGION": null,
        "SECTIONARC": null,
        "SECTION_AB": null,
        "SOURCE": null,
        "STRAT_INTE": null,
        "SectionArc": null,
        "Shape_Ar_1": null,
        "Shape_Area": null,
        "Shape_Le_1": null,
        "Shape_Leng": null,
        "Shape_Length": null,
        "Stop": null,
        "Stop_Num": null,
        "Symbology": null
      }
    },
    {
      "type": "Feature",
      "geometry": {
        "type": "MultiLineString",
        "coordinates": [
          [
            [
              -104.78021643932645,
              31.699305400281062
            ],
            [
              -104.78011811791383,
              31.69932343733283
            ],
            [
              -104.78002630560746,
              31.699359691465606
            ],
            [
              -104.77992948384149,
              31.699436550226785
            ],
            [
              -104.77986874359779,
              31.699493864565014
            ],
            [
              -104.77982639318691,
              31.699392958654766
            ],
            [
              -104.77984785154796,
              31.69932297262618
            ],
            [
              -104.7797530398813,
              31.69924158284552
            ],
            [
              -104.77972210940801,
              31.699160302980122
            ],
            [
              -104.77967132888479,
              31.699161616011597
            ],
            [
              -104.77958432500405,
              31.699242692794495
            ],
            [
              -104.77953014318153,
              31.699297217351937
            ],
            [
              -104.77939300325193,
              31.699801146196226
            ],
            [
              -104.77917154152556,
              31.69994221052458
            ],
            [
              -104.77893855506149,
              31.69996911716139
            ],
            [
              -104.7788661594153,
              31.700106237024077
            ]
          ]
        ]
      },
      "properties": {
        "Abbrev": null,
        "Alpha": null,
        "Area": null,
        "CS_ID": null,
        "CYCLE": null,
        "CycleDsolv": null,
        "DESCRIPT": null,
        "FEATUREKEY": null,
        "FEATUREK_1": null,
        "FEATURETYP": null,
        "FID_": null,
        "FID_Cross_": null,
        "FID_FanGeo": null,
        "FID_Fan_De": null,
        "FID_GIS_Re": null,
        "FID_Photo_": null,
        "FID_ftrip_": null,
        "FID_measur": null,
        "FID_patter": null,
        "FOURTH_ORD": null,
        "FOURTH_O_1": null,
        "FanID": null,
        "Fan_Del": null,
        "Fan_Del_sh": null,
        "FeatureT_1": null,
        "Geo_short": null,
        "Geography": null,
        "Gradient": null,
        "Hyperlink": null,
        "ID": null,
        "Id": 0,
        "Id_1": null,
        "LENGTH": null,
        "Location": null,
        "MAPSYMBOL": null,
        "MAP_SYMBOL": null,
        "MS_ID": null,
        "MidptX": null,
        "MidptY": null,
        "Mod_names": null,
        "NAME": null,
        "NAME_1": null,
        "Name": "6b-Rock Art North Upper",
        "OBJECTID": null,
        "OBJECTID_1": null,
        "ORDERBY": null,
        "ORIG_FID": null,
        "Offset": null,
        "PATTERNID": null,
        "PERSON": null,
        "PMLABEL": null,
        "PM_NAME": null,
        "PM_NAME_NE": null,
        "Pattern": null,
        "Profile": null,
        "REGION": null,
        "SECTIONARC": null,
        "SECTION_AB": null,
        "SOURCE": null,
        "STRAT_INTE": null,
        "SectionArc": null,
        "Shape_Ar_1": null,
        "Shape_Area": null,
        "Shape_Le_1": null,
        "Shape_Leng": null,
        "Shape_Length": null,
        "Stop": null,
        "Stop_Num": null,
        "Symbology": null
      }
    },
    {
      "type": "Feature",
      "geometry": {
        "type": "MultiLineString",
        "coordinates": [
          [
            [
              -104.7722138786833,
              31.696966564784866
            ],
            [
              -104.77215846804627,
              31.69700132199555
            ],
            [
              -104.77209724570955,
              31.69703108942103
            ],
            [
              -104.771966077375,
              31.697085629226773
            ],
            [
              -104.77193112257163,
              31.697090546335794
            ],
            [
              -104.77189594338687,
              31.69718758210577
            ],
            [
              -104.77188996799005,
              31.697249814067575
            ],
            [
              -104.77186358504713,
              31.697321968461818
            ],
            [
              -104.77188665583468,
              31.6974141286619
            ]
          ],
          [
            [
              -104.77233077781354,
              31.696792493503356
            ],
            [
              -104.77221680268079,
              31.69696159058074
            ]
          ]
        ]
      },
      "properties": {
        "Abbrev": null,
        "Alpha": null,
        "Area": null,
        "CS_ID": null,
        "CYCLE": null,
        "CycleDsolv": null,
        "DESCRIPT": null,
        "FEATUREKEY": null,
        "FEATUREK_1": null,
        "FEATURETYP": null,
        "FID_": null,
        "FID_Cross_": null,
        "FID_FanGeo": null,
        "FID_Fan_De": null,
        "FID_GIS_Re": null,
        "FID_Photo_": null,
        "FID_ftrip_": null,
        "FID_measur": null,
        "FID_patter": null,
        "FOURTH_ORD": null,
        "FOURTH_O_1": null,
        "FanID": null,
        "Fan_Del": null,
        "Fan_Del_sh": null,
        "FeatureT_1": null,
        "Geo_short": null,
        "Geography": null,
        "Gradient": null,
        "Hyperlink": null,
        "ID": null,
        "Id": 0,
        "Id_1": null,
        "LENGTH": null,
        "Location": null,
        "MAPSYMBOL": null,
        "MAP_SYMBOL": null,
        "MS_ID": null,
        "MidptX": null,
        "MidptY": null,
        "Mod_names": null,
        "NAME": null,
        "NAME_1": null,
        "Name": "5a-Rock Art East Lower",
        "OBJECTID": null,
        "OBJECTID_1": null,
        "ORDERBY": null,
        "ORIG_FID": null,
        "Offset": null,
        "PATTERNID": null,
        "PERSON": null,
        "PMLABEL": null,
        "PM_NAME": null,
        "PM_NAME_NE": null,
        "Pattern": null,
        "Profile": null,
        "REGION": null,
        "SECTIONARC": null,
        "SECTION_AB": null,
        "SOURCE": null,
        "STRAT_INTE": null,
        "SectionArc": null,
        "Shape_Ar_1": null,
        "Shape_Area": null,
        "Shape_Le_1": null,
        "Shape_Leng": null,
        "Shape_Length": null,
        "Stop": null,
        "Stop_Num": null,
        "Symbology": null
      }
    },
    {
      "type": "Feature",
      "geometry": {
        "type": "MultiLineString",
        "coordinates": [
          [
            [
              -104.77014608533244,
              31.697107269746503
            ],
            [
              -104.7691891903248,
              31.696652420962895
            ],
            [
              -104.76888362770423,
              31.696577178255037
            ],
            [
              -104.7684178818974,
              31.69651409351433
            ],
            [
              -104.76826933334145,
              31.6965312524913
            ],
            [
              -104.76751850926057,
              31.696353121443323
            ],
            [
              -104.76730015023851,
              31.696340275976443
            ],
            [
              -104.76719283206127,
              31.696170780859585
            ],
            [
              -104.76717312368872,
              31.695899367222573
            ],
            [
              -104.76691535663984,
              31.69592628465582
            ],
            [
              -104.76616951833326,
              31.69608675455176
            ],
            [
              -104.76561342210225,
              31.696058350293274
            ],
            [
              -104.76511655469074,
              31.695866976740668
            ]
          ]
        ]
      },
      "properties": {
        "Abbrev": null,
        "Alpha": null,
        "Area": null,
        "CS_ID": null,
        "CYCLE": null,
        "CycleDsolv": null,
        "DESCRIPT": null,
        "FEATUREKEY": null,
        "FEATUREK_1": null,
        "FEATURETYP": null,
        "FID_": null,
        "FID_Cross_": null,
        "FID_FanGeo": null,
        "FID_Fan_De": null,
        "FID_GIS_Re": null,
        "FID_Photo_": null,
        "FID_ftrip_": null,
        "FID_measur": null,
        "FID_patter": null,
        "FOURTH_ORD": null,
        "FOURTH_O_1": null,
        "FanID": null,
        "Fan_Del": null,
        "Fan_Del_sh": null,
        "FeatureT_1": null,
        "Geo_short": null,
        "Geography": null,
        "Gradient": null,
        "Hyperlink": null,
        "ID": null,
        "Id": 0,
        "Id_1": null,
        "LENGTH": null,
        "Location": null,
        "MAPSYMBOL": null,
        "MAP_SYMBOL": null,
        "MS_ID": null,
        "MidptX": null,
        "MidptY": null,
        "Mod_names": null,
        "NAME": null,
        "NAME_1": null,
        "Name": "5b-Rock Art East Upper",
        "OBJECTID": null,
        "OBJECTID_1": null,
        "ORDERBY": null,
        "ORIG_FID": null,
        "Offset": null,
        "PATTERNID": null,
        "PERSON": null,
        "PMLABEL": null,
        "PM_NAME": null,
        "PM_NAME_NE": null,
        "Pattern": null,
        "Profile": null,
        "REGION": null,
        "SECTIONARC": null,
        "SECTION_AB": null,
        "SOURCE": null,
        "STRAT_INTE": null,
        "SectionArc": null,
        "Shape_Ar_1": null,
        "Shape_Area": null,
        "Shape_Le_1": null,
        "Shape_Leng": null,
        "Shape_Length": null,
        "Stop": null,
        "Stop_Num": null,
        "Symbology": null
      }
    },
    {
      "type": "Feature",
      "geometry": {
        "type": "MultiLineString",
        "coordinates": [
          [
            [
              -104.78187286887713,
              31.708989009361506
            ],
            [
              -104.78173516008248,
              31.709069885878613
            ],
            [
              -104.78167198921471,
              31.709187344048434
            ],
            [
              -104.78162922192458,
              31.709241041529985
            ],
            [
              -104.78168354566608,
              31.70926027290002
            ],
            [
              -104.78185070687272,
              31.709349871760402
            ],
            [
              -104.7818645485044,
              31.709357186277355
            ]
          ]
        ]
      },
      "properties": {
        "Abbrev": null,
        "Alpha": null,
        "Area": null,
        "CS_ID": null,
        "CYCLE": null,
        "CycleDsolv": null,
        "DESCRIPT": null,
        "FEATUREKEY": null,
        "FEATUREK_1": null,
        "FEATURETYP": null,
        "FID_": null,
        "FID_Cross_": null,
        "FID_FanGeo": null,
        "FID_Fan_De": null,
        "FID_GIS_Re": null,
        "FID_Photo_": null,
        "FID_ftrip_": null,
        "FID_measur": null,
        "FID_patter": null,
        "FOURTH_ORD": null,
        "FOURTH_O_1": null,
        "FanID": null,
        "Fan_Del": null,
        "Fan_Del_sh": null,
        "FeatureT_1": null,
        "Geo_short": null,
        "Geography": null,
        "Gradient": null,
        "Hyperlink": null,
        "ID": null,
        "Id": 0,
        "Id_1": null,
        "LENGTH": null,
        "Location": null,
        "MAPSYMBOL": null,
        "MAP_SYMBOL": null,
        "MS_ID": null,
        "MidptX": null,
        "MidptY": null,
        "Mod_names": null,
        "NAME": null,
        "NAME_1": null,
        "Name": "7-Panorama North",
        "OBJECTID": null,
        "OBJECTID_1": null,
        "ORDERBY": null,
        "ORIG_FID": null,
        "Offset": null,
        "PATTERNID": null,
        "PERSON": null,
        "PMLABEL": null,
        "PM_NAME": null,
        "PM_NAME_NE": null,
        "Pattern": null,
        "Profile": null,
        "REGION": null,
        "SECTIONARC": null,
        "SECTION_AB": null,
        "SOURCE": null,
        "STRAT_INTE": null,
        "SectionArc": null,
        "Shape_Ar_1": null,
        "Shape_Area": null,
        "Shape_Le_1": null,
        "Shape_Leng": null,
        "Shape_Length": null,
        "Stop": null,
        "Stop_Num": null,
        "Symbology": null
      }
    },
    {
      "type": "Feature",
      "geometry": {
        "type": "MultiLineString",
        "coordinates": [
          [
            [
              -104.79498460866625,
              31.720812128562415
            ],
            [
              -104.79490227468422,
              31.720758529920523
            ],
            [
              -104.79479832137876,
              31.7208397782791
            ],
            [
              -104.79478140911299,
              31.720772917849665
            ],
            [
              -104.79471022652932,
              31.720820194492756
            ],
            [
              -104.79469749904395,
              31.720789795293125
            ],
            [
              -104.79467620479993,
              31.720776394450432
            ]
          ]
        ]
      },
      "properties": {
        "Abbrev": null,
        "Alpha": null,
        "Area": null,
        "CS_ID": null,
        "CYCLE": null,
        "CycleDsolv": null,
        "DESCRIPT": null,
        "FEATUREKEY": null,
        "FEATUREK_1": null,
        "FEATURETYP": null,
        "FID_": null,
        "FID_Cross_": null,
        "FID_FanGeo": null,
        "FID_Fan_De": null,
        "FID_GIS_Re": null,
        "FID_Photo_": null,
        "FID_ftrip_": null,
        "FID_measur": null,
        "FID_patter": null,
        "FOURTH_ORD": null,
        "FOURTH_O_1": null,
        "FanID": null,
        "Fan_Del": null,
        "Fan_Del_sh": null,
        "FeatureT_1": null,
        "Geo_short": null,
        "Geography": null,
        "Gradient": null,
        "Hyperlink": null,
        "ID": null,
        "Id": 0,
        "Id_1": null,
        "LENGTH": null,
        "Location": null,
        "MAPSYMBOL": null,
        "MAP_SYMBOL": null,
        "MS_ID": null,
        "MidptX": null,
        "MidptY": null,
        "Mod_names": null,
        "NAME": null,
        "NAME_1": null,
        "Name": "9-Dance Hall",
        "OBJECTID": null,
        "OBJECTID_1": null,
        "ORDERBY": null,
        "ORIG_FID": null,
        "Offset": null,
        "PATTERNID": null,
        "PERSON": null,
        "PMLABEL": null,
        "PM_NAME": null,
        "PM_NAME_NE": null,
        "Pattern": null,
        "Profile": null,
        "REGION": null,
        "SECTIONARC": null,
        "SECTION_AB": null,
        "SOURCE": null,
        "STRAT_INTE": null,
        "SectionArc": null,
        "Shape_Ar_1": null,
        "Shape_Area": null,
        "Shape_Le_1": null,
        "Shape_Leng": null,
        "Shape_Length": null,
        "Stop": null,
        "Stop_Num": null,
        "Symbology": null
      }
    },
    {
      "type": "Feature",
      "geometry": {
        "type": "MultiLineString",
        "coordinates": [
          [
            [
              -104.78739625604422,
              31.722380639682637
            ],
            [
              -104.78738781760723,
              31.72234052570286
            ],
            [
              -104.787391208821,
              31.72225577462832
            ],
            [
              -104.78740735500892,
              31.722188360646147
            ],
            [
              -104.78742019076135,
              31.72217015473441
            ],
            [
              -104.78743726850638,
              31.722161980860477
            ],
            [
              -104.7874468642538,
              31.722161996810733
            ],
            [
              -104.78747032052536,
              31.72216203579723
            ],
            [
              -104.78753119708585,
              31.722116568832835
            ],
            [
              -104.7875323667719,
              31.722071002649212
            ]
          ]
        ]
      },
      "properties": {
        "Abbrev": null,
        "Alpha": null,
        "Area": null,
        "CS_ID": null,
        "CYCLE": null,
        "CycleDsolv": null,
        "DESCRIPT": null,
        "FEATUREKEY": null,
        "FEATUREK_1": null,
        "FEATURETYP": null,
        "FID_": null,
        "FID_Cross_": null,
        "FID_FanGeo": null,
        "FID_Fan_De": null,
        "FID_GIS_Re": null,
        "FID_Photo_": null,
        "FID_ftrip_": null,
        "FID_measur": null,
        "FID_patter": null,
        "FOURTH_ORD": null,
        "FOURTH_O_1": null,
        "FanID": null,
        "Fan_Del": null,
        "Fan_Del_sh": null,
        "FeatureT_1": null,
        "Geo_short": null,
        "Geography": null,
        "Gradient": null,
        "Hyperlink": null,
        "ID": null,
        "Id": 0,
        "Id_1": null,
        "LENGTH": null,
        "Location": null,
        "MAPSYMBOL": null,
        "MAP_SYMBOL": null,
        "MS_ID": null,
        "MidptX": null,
        "MidptY": null,
        "Mod_names": null,
        "NAME": null,
        "NAME_1": null,
        "Name": "8a-Rolling Rock Lower",
        "OBJECTID": null,
        "OBJECTID_1": null,
        "ORDERBY": null,
        "ORIG_FID": null,
        "Offset": null,
        "PATTERNID": null,
        "PERSON": null,
        "PMLABEL": null,
        "PM_NAME": null,
        "PM_NAME_NE": null,
        "Pattern": null,
        "Profile": null,
        "REGION": null,
        "SECTIONARC": null,
        "SECTION_AB": null,
        "SOURCE": null,
        "STRAT_INTE": null,
        "SectionArc": null,
        "Shape_Ar_1": null,
        "Shape_Area": null,
        "Shape_Le_1": null,
        "Shape_Leng": null,
        "Shape_Length": null,
        "Stop": null,
        "Stop_Num": null,
        "Symbology": null
      }
    },
    {
      "type": "Feature",
      "geometry": {
        "type": "MultiLineString",
        "coordinates": [
          [
            [
              -104.78527286382038,
              31.721707240271694
            ],
            [
              -104.78498813066332,
              31.72173319133777
            ],
            [
              -104.78475532610453,
              31.72189593355334
            ],
            [
              -104.7844278605865,
              31.721958265921813
            ],
            [
              -104.78414401639276,
              31.721875764470255
            ],
            [
              -104.78398377424242,
              31.722011286863374
            ],
            [
              -104.78392168460186,
              31.722119634078606
            ],
            [
              -104.78385748348396,
              31.722218864068527
            ],
            [
              -104.78354073935682,
              31.722254782761286
            ],
            [
              -104.78350958982105,
              31.722354068517863
            ],
            [
              -104.78339327105242,
              31.722398528279957
            ],
            [
              -104.78341534679873,
              31.722534358653526
            ],
            [
              -104.78338342637645,
              31.722598099940043
            ],
            [
              -104.78332792493426,
              31.722623524046917
            ],
            [
              -104.7831508513793,
              31.72265967835872
            ],
            [
              -104.78287451427747,
              31.722741687696452
            ],
            [
              -104.78289552526162,
              31.722876604978836
            ],
            [
              -104.78291647285972,
              31.723038863012707
            ],
            [
              -104.78290564162502,
              31.7231117535963
            ],
            [
              -104.78291699343221,
              31.72327399533163
            ],
            [
              -104.78305194301741,
              31.723471989956565
            ],
            [
              -104.78314765040298,
              31.723580604401608
            ],
            [
              -104.78322205490447,
              31.723680069037826
            ],
            [
              -104.78324864472147,
              31.723708366340517
            ]
          ]
        ]
      },
      "properties": {
        "Abbrev": null,
        "Alpha": null,
        "Area": null,
        "CS_ID": null,
        "CYCLE": null,
        "CycleDsolv": null,
        "DESCRIPT": null,
        "FEATUREKEY": null,
        "FEATUREK_1": null,
        "FEATURETYP": null,
        "FID_": null,
        "FID_Cross_": null,
        "FID_FanGeo": null,
        "FID_Fan_De": null,
        "FID_GIS_Re": null,
        "FID_Photo_": null,
        "FID_ftrip_": null,
        "FID_measur": null,
        "FID_patter": null,
        "FOURTH_ORD": null,
        "FOURTH_O_1": null,
        "FanID": null,
        "Fan_Del": null,
        "Fan_Del_sh": null,
        "FeatureT_1": null,
        "Geo_short": null,
        "Geography": null,
        "Gradient": null,
        "Hyperlink": null,
        "ID": null,
        "Id": 0,
        "Id_1": null,
        "LENGTH": null,
        "Location": null,
        "MAPSYMBOL": null,
        "MAP_SYMBOL": null,
        "MS_ID": null,
        "MidptX": null,
        "MidptY": null,
        "Mod_names": null,
        "NAME": null,
        "NAME_1": null,
        "Name": "8b-Rolling Rock Upper",
        "OBJECTID": null,
        "OBJECTID_1": null,
        "ORDERBY": null,
        "ORIG_FID": null,
        "Offset": null,
        "PATTERNID": null,
        "PERSON": null,
        "PMLABEL": null,
        "PM_NAME": null,
        "PM_NAME_NE": null,
        "Pattern": null,
        "Profile": null,
        "REGION": null,
        "SECTIONARC": null,
        "SECTION_AB": null,
        "SOURCE": null,
        "STRAT_INTE": null,
        "SectionArc": null,
        "Shape_Ar_1": null,
        "Shape_Area": null,
        "Shape_Le_1": null,
        "Shape_Leng": null,
        "Shape_Length": null,
        "Stop": null,
        "Stop_Num": null,
        "Symbology": null
      }
    },
    {
      "type": "Feature",
      "geometry": {
        "type": "MultiLineString",
        "coordinates": [
          [
            [
              -104.87836695039582,
              31.885565784631762
            ],
            [
              -104.87832183129902,
              31.885650230636696
            ]
          ]
        ]
      },
      "properties": {
        "Abbrev": null,
        "Alpha": null,
        "Area": null,
        "CS_ID": null,
        "CYCLE": null,
        "CycleDsolv": null,
        "DESCRIPT": null,
        "FEATUREKEY": null,
        "FEATUREK_1": null,
        "FEATURETYP": null,
        "FID_": null,
        "FID_Cross_": null,
        "FID_FanGeo": null,
        "FID_Fan_De": null,
        "FID_GIS_Re": null,
        "FID_Photo_": null,
        "FID_ftrip_": null,
        "FID_measur": null,
        "FID_patter": null,
        "FOURTH_ORD": null,
        "FOURTH_O_1": null,
        "FanID": null,
        "Fan_Del": null,
        "Fan_Del_sh": null,
        "FeatureT_1": null,
        "Geo_short": null,
        "Geography": null,
        "Gradient": null,
        "Hyperlink": null,
        "ID": null,
        "Id": 0,
        "Id_1": null,
        "LENGTH": null,
        "Location": null,
        "MAPSYMBOL": null,
        "MAP_SYMBOL": null,
        "MS_ID": null,
        "MidptX": null,
        "MidptY": null,
        "Mod_names": null,
        "NAME": null,
        "NAME_1": null,
        "Name": "F-Bone North",
        "OBJECTID": null,
        "OBJECTID_1": null,
        "ORDERBY": null,
        "ORIG_FID": null,
        "Offset": null,
        "PATTERNID": null,
        "PERSON": null,
        "PMLABEL": null,
        "PM_NAME": null,
        "PM_NAME_NE": null,
        "Pattern": null,
        "Profile": null,
        "REGION": null,
        "SECTIONARC": null,
        "SECTION_AB": null,
        "SOURCE": null,
        "STRAT_INTE": null,
        "SectionArc": null,
        "Shape_Ar_1": null,
        "Shape_Area": null,
        "Shape_Le_1": null,
        "Shape_Leng": null,
        "Shape_Length": null,
        "Stop": null,
        "Stop_Num": null,
        "Symbology": null
      }
    },
    {
      "type": "Feature",
      "geometry": {
        "type": "MultiLineString",
        "coordinates": [
          [
            [
              -104.87924840041272,
              31.883626854465362
            ],
            [
              -104.87916277897199,
              31.883274655931654
            ],
            [
              -104.8791124252508,
              31.883058585232057
            ]
          ]
        ]
      },
      "properties": {
        "Abbrev": null,
        "Alpha": null,
        "Area": null,
        "CS_ID": null,
        "CYCLE": null,
        "CycleDsolv": null,
        "DESCRIPT": null,
        "FEATUREKEY": null,
        "FEATUREK_1": null,
        "FEATURETYP": null,
        "FID_": null,
        "FID_Cross_": null,
        "FID_FanGeo": null,
        "FID_Fan_De": null,
        "FID_GIS_Re": null,
        "FID_Photo_": null,
        "FID_ftrip_": null,
        "FID_measur": null,
        "FID_patter": null,
        "FOURTH_ORD": null,
        "FOURTH_O_1": null,
        "FanID": null,
        "Fan_Del": null,
        "Fan_Del_sh": null,
        "FeatureT_1": null,
        "Geo_short": null,
        "Geography": null,
        "Gradient": null,
        "Hyperlink": null,
        "ID": null,
        "Id": 0,
        "Id_1": null,
        "LENGTH": null,
        "Location": null,
        "MAPSYMBOL": null,
        "MAP_SYMBOL": null,
        "MS_ID": null,
        "MidptX": null,
        "MidptY": null,
        "Mod_names": null,
        "NAME": null,
        "NAME_1": null,
        "Name": "E-Bone South",
        "OBJECTID": null,
        "OBJECTID_1": null,
        "ORDERBY": null,
        "ORIG_FID": null,
        "Offset": null,
        "PATTERNID": null,
        "PERSON": null,
        "PMLABEL": null,
        "PM_NAME": null,
        "PM_NAME_NE": null,
        "Pattern": null,
        "Profile": null,
        "REGION": null,
        "SECTIONARC": null,
        "SECTION_AB": null,
        "SOURCE": null,
        "STRAT_INTE": null,
        "SectionArc": null,
        "Shape_Ar_1": null,
        "Shape_Area": null,
        "Shape_Le_1": null,
        "Shape_Leng": null,
        "Shape_Length": null,
        "Stop": null,
        "Stop_Num": null,
        "Symbology": null
      }
    },
    {
      "type": "Feature",
      "geometry": {
        "type": "MultiLineString",
        "coordinates": [
          [
            [
              -104.8790728734747,
              31.87841621060629
            ],
            [
              -104.87897902389172,
              31.878556536814
            ],
            [
              -104.87871775966883,
              31.878951611478236
            ]
          ]
        ]
      },
      "properties": {
        "Abbrev": null,
        "Alpha": null,
        "Area": null,
        "CS_ID": null,
        "CYCLE": null,
        "CycleDsolv": null,
        "DESCRIPT": null,
        "FEATUREKEY": null,
        "FEATUREK_1": null,
        "FEATURETYP": null,
        "FID_": null,
        "FID_Cross_": null,
        "FID_FanGeo": null,
        "FID_Fan_De": null,
        "FID_GIS_Re": null,
        "FID_Photo_": null,
        "FID_ftrip_": null,
        "FID_measur": null,
        "FID_patter": null,
        "FOURTH_ORD": null,
        "FOURTH_O_1": null,
        "FanID": null,
        "Fan_Del": null,
        "Fan_Del_sh": null,
        "FeatureT_1": null,
        "Geo_short": null,
        "Geography": null,
        "Gradient": null,
        "Hyperlink": null,
        "ID": null,
        "Id": 0,
        "Id_1": null,
        "LENGTH": null,
        "Location": null,
        "MAPSYMBOL": null,
        "MAP_SYMBOL": null,
        "MS_ID": null,
        "MidptX": null,
        "MidptY": null,
        "Mod_names": null,
        "NAME": null,
        "NAME_1": null,
        "Name": "C-Stratotype North",
        "OBJECTID": null,
        "OBJECTID_1": null,
        "ORDERBY": null,
        "ORIG_FID": null,
        "Offset": null,
        "PATTERNID": null,
        "PERSON": null,
        "PMLABEL": null,
        "PM_NAME": null,
        "PM_NAME_NE": null,
        "Pattern": null,
        "Profile": null,
        "REGION": null,
        "SECTIONARC": null,
        "SECTION_AB": null,
        "SOURCE": null,
        "STRAT_INTE": null,
        "SectionArc": null,
        "Shape_Ar_1": null,
        "Shape_Area": null,
        "Shape_Le_1": null,
        "Shape_Leng": null,
        "Shape_Length": null,
        "Stop": null,
        "Stop_Num": null,
        "Symbology": null
      }
    },
    {
      "type": "Feature",
      "geometry": {
        "type": "MultiLineString",
        "coordinates": [
          [
            [
              -104.88025563525729,
              31.881951463684004
            ],
            [
              -104.88007332874855,
              31.881972894962175
            ],
            [
              -104.87989356771337,
              31.88198352721745
            ]
          ]
        ]
      },
      "properties": {
        "Abbrev": null,
        "Alpha": null,
        "Area": null,
        "CS_ID": null,
        "CYCLE": null,
        "CycleDsolv": null,
        "DESCRIPT": null,
        "FEATUREKEY": null,
        "FEATUREK_1": null,
        "FEATURETYP": null,
        "FID_": null,
        "FID_Cross_": null,
        "FID_FanGeo": null,
        "FID_Fan_De": null,
        "FID_GIS_Re": null,
        "FID_Photo_": null,
        "FID_ftrip_": null,
        "FID_measur": null,
        "FID_patter": null,
        "FOURTH_ORD": null,
        "FOURTH_O_1": null,
        "FanID": null,
        "Fan_Del": null,
        "Fan_Del_sh": null,
        "FeatureT_1": null,
        "Geo_short": null,
        "Geography": null,
        "Gradient": null,
        "Hyperlink": null,
        "ID": null,
        "Id": 0,
        "Id_1": null,
        "LENGTH": null,
        "Location": null,
        "MAPSYMBOL": null,
        "MAP_SYMBOL": null,
        "MS_ID": null,
        "MidptX": null,
        "MidptY": null,
        "Mod_names": null,
        "NAME": null,
        "NAME_1": null,
        "Name": "D-South of Bone",
        "OBJECTID": null,
        "OBJECTID_1": null,
        "ORDERBY": null,
        "ORIG_FID": null,
        "Offset": null,
        "PATTERNID": null,
        "PERSON": null,
        "PMLABEL": null,
        "PM_NAME": null,
        "PM_NAME_NE": null,
        "Pattern": null,
        "Profile": null,
        "REGION": null,
        "SECTIONARC": null,
        "SECTION_AB": null,
        "SOURCE": null,
        "STRAT_INTE": null,
        "SectionArc": null,
        "Shape_Ar_1": null,
        "Shape_Area": null,
        "Shape_Le_1": null,
        "Shape_Leng": null,
        "Shape_Length": null,
        "Stop": null,
        "Stop_Num": null,
        "Symbology": null
      }
    },
    {
      "type": "Feature",
      "geometry": {
        "type": "MultiLineString",
        "coordinates": [
          [
            [
              -104.87724981643963,
              31.876748932511955
            ],
            [
              -104.87684686774027,
              31.877081220460514
            ],
            [
              -104.87624640565632,
              31.877452200076046
            ],
            [
              -104.8757599182727,
              31.877777922867256
            ],
            [
              -104.87520766804238,
              31.8780582146615
            ]
          ]
        ]
      },
      "properties": {
        "Abbrev": null,
        "Alpha": null,
        "Area": null,
        "CS_ID": null,
        "CYCLE": null,
        "CycleDsolv": null,
        "DESCRIPT": null,
        "FEATUREKEY": null,
        "FEATUREK_1": null,
        "FEATURETYP": null,
        "FID_": null,
        "FID_Cross_": null,
        "FID_FanGeo": null,
        "FID_Fan_De": null,
        "FID_GIS_Re": null,
        "FID_Photo_": null,
        "FID_ftrip_": null,
        "FID_measur": null,
        "FID_patter": null,
        "FOURTH_ORD": null,
        "FOURTH_O_1": null,
        "FanID": null,
        "Fan_Del": null,
        "Fan_Del_sh": null,
        "FeatureT_1": null,
        "Geo_short": null,
        "Geography": null,
        "Gradient": null,
        "Hyperlink": null,
        "ID": null,
        "Id": 0,
        "Id_1": null,
        "LENGTH": null,
        "Location": null,
        "MAPSYMBOL": null,
        "MAP_SYMBOL": null,
        "MS_ID": null,
        "MidptX": null,
        "MidptY": null,
        "Mod_names": null,
        "NAME": null,
        "NAME_1": null,
        "Name": "B-Stratotype",
        "OBJECTID": null,
        "OBJECTID_1": null,
        "ORDERBY": null,
        "ORIG_FID": null,
        "Offset": null,
        "PATTERNID": null,
        "PERSON": null,
        "PMLABEL": null,
        "PM_NAME": null,
        "PM_NAME_NE": null,
        "Pattern": null,
        "Profile": null,
        "REGION": null,
        "SECTIONARC": null,
        "SECTION_AB": null,
        "SOURCE": null,
        "STRAT_INTE": null,
        "SectionArc": null,
        "Shape_Ar_1": null,
        "Shape_Area": null,
        "Shape_Le_1": null,
        "Shape_Leng": null,
        "Shape_Length": null,
        "Stop": null,
        "Stop_Num": null,
        "Symbology": null
      }
    },
    {
      "type": "Feature",
      "geometry": {
        "type": "MultiLineString",
        "coordinates": [
          [
            [
              -104.8758593653341,
              31.8684404695644
            ],
            [
              -104.87585025754062,
              31.86842878170074
            ]
          ]
        ]
      },
      "properties": {
        "Abbrev": null,
        "Alpha": null,
        "Area": null,
        "CS_ID": null,
        "CYCLE": null,
        "CycleDsolv": null,
        "DESCRIPT": null,
        "FEATUREKEY": null,
        "FEATUREK_1": null,
        "FEATURETYP": null,
        "FID_": null,
        "FID_Cross_": null,
        "FID_FanGeo": null,
        "FID_Fan_De": null,
        "FID_GIS_Re": null,
        "FID_Photo_": null,
        "FID_ftrip_": null,
        "FID_measur": null,
        "FID_patter": null,
        "FOURTH_ORD": null,
        "FOURTH_O_1": null,
        "FanID": null,
        "Fan_Del": null,
        "Fan_Del_sh": null,
        "FeatureT_1": null,
        "Geo_short": null,
        "Geography": null,
        "Gradient": null,
        "Hyperlink": null,
        "ID": null,
        "Id": 0,
        "Id_1": null,
        "LENGTH": null,
        "Location": null,
        "MAPSYMBOL": null,
        "MAP_SYMBOL": null,
        "MS_ID": null,
        "MidptX": null,
        "MidptY": null,
        "Mod_names": null,
        "NAME": null,
        "NAME_1": null,
        "Name": null,
        "OBJECTID": null,
        "OBJECTID_1": null,
        "ORDERBY": null,
        "ORIG_FID": null,
        "Offset": null,
        "PATTERNID": null,
        "PERSON": null,
        "PMLABEL": null,
        "PM_NAME": null,
        "PM_NAME_NE": null,
        "Pattern": null,
        "Profile": null,
        "REGION": null,
        "SECTIONARC": null,
        "SECTION_AB": null,
        "SOURCE": null,
        "STRAT_INTE": null,
        "SectionArc": null,
        "Shape_Ar_1": null,
        "Shape_Area": null,
        "Shape_Le_1": null,
        "Shape_Leng": null,
        "Shape_Length": null,
        "Stop": null,
        "Stop_Num": null,
        "Symbology": null
      }
    },
    {
      "type": "Feature",
      "geometry": {
        "type": "MultiLineString",
        "coordinates": [
          [
            [
              -104.87451852843948,
              31.868221151241396
            ],
            [
              -104.87481024979819,
              31.868388836654614
            ],
            [
              -104.874928873954,
              31.868373380840204
            ],
            [
              -104.8751753079782,
              31.86829576180553
            ],
            [
              -104.87531218899758,
              31.868272537463483
            ],
            [
              -104.8753897527983,
              31.86826093413714
            ],
            [
              -104.87567700239663,
              31.868362432130674
            ],
            [
              -104.87588216331253,
              31.868448277725662
            ],
            [
              -104.87607366027903,
              31.86851853771782
            ]
          ]
        ]
      },
      "properties": {
        "Abbrev": null,
        "Alpha": null,
        "Area": null,
        "CS_ID": null,
        "CYCLE": null,
        "CycleDsolv": null,
        "DESCRIPT": null,
        "FEATUREKEY": null,
        "FEATUREK_1": null,
        "FEATURETYP": null,
        "FID_": null,
        "FID_Cross_": null,
        "FID_FanGeo": null,
        "FID_Fan_De": null,
        "FID_GIS_Re": null,
        "FID_Photo_": null,
        "FID_ftrip_": null,
        "FID_measur": null,
        "FID_patter": null,
        "FOURTH_ORD": null,
        "FOURTH_O_1": null,
        "FanID": null,
        "Fan_Del": null,
        "Fan_Del_sh": null,
        "FeatureT_1": null,
        "Geo_short": null,
        "Geography": null,
        "Gradient": null,
        "Hyperlink": null,
        "ID": null,
        "Id": 0,
        "Id_1": null,
        "LENGTH": null,
        "Location": null,
        "MAPSYMBOL": null,
        "MAP_SYMBOL": null,
        "MS_ID": null,
        "MidptX": null,
        "MidptY": null,
        "Mod_names": null,
        "NAME": null,
        "NAME_1": null,
        "Name": "A-Opera House",
        "OBJECTID": null,
        "OBJECTID_1": null,
        "ORDERBY": null,
        "ORIG_FID": null,
        "Offset": null,
        "PATTERNID": null,
        "PERSON": null,
        "PMLABEL": null,
        "PM_NAME": null,
        "PM_NAME_NE": null,
        "Pattern": null,
        "Profile": null,
        "REGION": null,
        "SECTIONARC": null,
        "SECTION_AB": null,
        "SOURCE": null,
        "STRAT_INTE": null,
        "SectionArc": null,
        "Shape_Ar_1": null,
        "Shape_Area": null,
        "Shape_Le_1": null,
        "Shape_Leng": null,
        "Shape_Length": null,
        "Stop": null,
        "Stop_Num": null,
        "Symbology": null
      }
    },
    {
      "type": "Feature",
      "geometry": {
        "type": "MultiLineString",
        "coordinates": [
          [
            [
              -104.85725811845931,
              31.841611381358938
            ],
            [
              -104.85742600261564,
              31.841777530155625
            ]
          ]
        ]
      },
      "properties": {
        "Abbrev": null,
        "Alpha": null,
        "Area": null,
        "CS_ID": null,
        "CYCLE": null,
        "CycleDsolv": null,
        "DESCRIPT": null,
        "FEATUREKEY": null,
        "FEATUREK_1": null,
        "FEATURETYP": null,
        "FID_": null,
        "FID_Cross_": null,
        "FID_FanGeo": null,
        "FID_Fan_De": null,
        "FID_GIS_Re": null,
        "FID_Photo_": null,
        "FID_ftrip_": null,
        "FID_measur": null,
        "FID_patter": null,
        "FOURTH_ORD": null,
        "FOURTH_O_1": null,
        "FanID": null,
        "Fan_Del": null,
        "Fan_Del_sh": null,
        "FeatureT_1": null,
        "Geo_short": null,
        "Geography": null,
        "Gradient": null,
        "Hyperlink": null,
        "ID": null,
        "Id": 0,
        "Id_1": null,
        "LENGTH": null,
        "Location": null,
        "MAPSYMBOL": null,
        "MAP_SYMBOL": null,
        "MS_ID": null,
        "MidptX": null,
        "MidptY": null,
        "Mod_names": null,
        "NAME": null,
        "NAME_1": null,
        "Name": "11-Williams Cave",
        "OBJECTID": null,
        "OBJECTID_1": null,
        "ORDERBY": null,
        "ORIG_FID": null,
        "Offset": null,
        "PATTERNID": null,
        "PERSON": null,
        "PMLABEL": null,
        "PM_NAME": null,
        "PM_NAME_NE": null,
        "Pattern": null,
        "Profile": null,
        "REGION": null,
        "SECTIONARC": null,
        "SECTION_AB": null,
        "SOURCE": null,
        "STRAT_INTE": null,
        "SectionArc": null,
        "Shape_Ar_1": null,
        "Shape_Area": null,
        "Shape_Le_1": null,
        "Shape_Leng": null,
        "Shape_Length": null,
        "Stop": null,
        "Stop_Num": null,
        "Symbology": null
      }
    },
    {
      "type": "Feature",
      "geometry": {
        "type": "MultiLineString",
        "coordinates": [
          [
            [
              -104.85677954931974,
              31.841888942901086
            ],
            [
              -104.85664806711084,
              31.8419695333139
            ],
            [
              -104.85658489100372,
              31.84205020030716
            ],
            [
              -104.85656380468058,
              31.84209503102566
            ],
            [
              -104.85643756252007,
              31.842184597981483
            ],
            [
              -104.8562641277936,
              31.842211315553804
            ],
            [
              -104.85607493685934,
              31.842233529695253
            ],
            [
              -104.85601162847847,
              31.842399419600902
            ],
            [
              -104.85592733014019,
              31.842547344036685
            ],
            [
              -104.85583257133493,
              31.842663858530415
            ],
            [
              -104.85573797883443,
              31.842672722597474
            ],
            [
              -104.85562238967542,
              31.842668106542323
            ],
            [
              -104.85559087041338,
              31.84266358546803
            ],
            [
              -104.85553836842928,
              31.842636613457483
            ],
            [
              -104.85535468130574,
              31.842497356935112
            ]
          ]
        ]
      },
      "properties": {
        "Abbrev": null,
        "Alpha": null,
        "Area": null,
        "CS_ID": null,
        "CYCLE": null,
        "CycleDsolv": null,
        "DESCRIPT": null,
        "FEATUREKEY": null,
        "FEATUREK_1": null,
        "FEATURETYP": null,
        "FID_": null,
        "FID_Cross_": null,
        "FID_FanGeo": null,
        "FID_Fan_De": null,
        "FID_GIS_Re": null,
        "FID_Photo_": null,
        "FID_ftrip_": null,
        "FID_measur": null,
        "FID_patter": null,
        "FOURTH_ORD": null,
        "FOURTH_O_1": null,
        "FanID": null,
        "Fan_Del": null,
        "Fan_Del_sh": null,
        "FeatureT_1": null,
        "Geo_short": null,
        "Geography": null,
        "Gradient": null,
        "Hyperlink": null,
        "ID": null,
        "Id": 0,
        "Id_1": null,
        "LENGTH": null,
        "Location": null,
        "MAPSYMBOL": null,
        "MAP_SYMBOL": null,
        "MS_ID": null,
        "MidptX": null,
        "MidptY": null,
        "Mod_names": null,
        "NAME": null,
        "NAME_1": null,
        "Name": "11-Williams Cave",
        "OBJECTID": null,
        "OBJECTID_1": null,
        "ORDERBY": null,
        "ORIG_FID": null,
        "Offset": null,
        "PATTERNID": null,
        "PERSON": null,
        "PMLABEL": null,
        "PM_NAME": null,
        "PM_NAME_NE": null,
        "Pattern": null,
        "Profile": null,
        "REGION": null,
        "SECTIONARC": null,
        "SECTION_AB": null,
        "SOURCE": null,
        "STRAT_INTE": null,
        "SectionArc": null,
        "Shape_Ar_1": null,
        "Shape_Area": null,
        "Shape_Le_1": null,
        "Shape_Leng": null,
        "Shape_Length": null,
        "Stop": null,
        "Stop_Num": null,
        "Symbology": null
      }
    },
    {
      "type": "Feature",
      "geometry": {
        "type": "MultiLineString",
        "coordinates": [
          [
            [
              -104.84958712643711,
              31.836126974519846
            ],
            [
              -104.84957128303786,
              31.836177417096984
            ],
            [
              -104.84948834793296,
              31.836291698185672
            ],
            [
              -104.84939758051357,
              31.836375693240203
            ],
            [
              -104.84931867795503,
              31.83643278956941
            ],
            [
              -104.84923974809982,
              31.83650670622838
            ],
            [
              -104.8497956475518,
              31.83632906488854
            ]
          ]
        ]
      },
      "properties": {
        "Abbrev": null,
        "Alpha": null,
        "Area": null,
        "CS_ID": null,
        "CYCLE": null,
        "CycleDsolv": null,
        "DESCRIPT": null,
        "FEATUREKEY": null,
        "FEATUREK_1": null,
        "FEATURETYP": null,
        "FID_": null,
        "FID_Cross_": null,
        "FID_FanGeo": null,
        "FID_Fan_De": null,
        "FID_GIS_Re": null,
        "FID_Photo_": null,
        "FID_ftrip_": null,
        "FID_measur": null,
        "FID_patter": null,
        "FOURTH_ORD": null,
        "FOURTH_O_1": null,
        "FanID": null,
        "Fan_Del": null,
        "Fan_Del_sh": null,
        "FeatureT_1": null,
        "Geo_short": null,
        "Geography": null,
        "Gradient": null,
        "Hyperlink": null,
        "ID": null,
        "Id": 0,
        "Id_1": null,
        "LENGTH": null,
        "Location": null,
        "MAPSYMBOL": null,
        "MAP_SYMBOL": null,
        "MS_ID": null,
        "MidptX": null,
        "MidptY": null,
        "Mod_names": null,
        "NAME": null,
        "NAME_1": null,
        "Name": "10a-Rest Area",
        "OBJECTID": null,
        "OBJECTID_1": null,
        "ORDERBY": null,
        "ORIG_FID": null,
        "Offset": null,
        "PATTERNID": null,
        "PERSON": null,
        "PMLABEL": null,
        "PM_NAME": null,
        "PM_NAME_NE": null,
        "Pattern": null,
        "Profile": null,
        "REGION": null,
        "SECTIONARC": null,
        "SECTION_AB": null,
        "SOURCE": null,
        "STRAT_INTE": null,
        "SectionArc": null,
        "Shape_Ar_1": null,
        "Shape_Area": null,
        "Shape_Le_1": null,
        "Shape_Leng": null,
        "Shape_Length": null,
        "Stop": null,
        "Stop_Num": null,
        "Symbology": null
      }
    },
    {
      "type": "Feature",
      "geometry": {
        "type": "MultiLineString",
        "coordinates": [
          [
            [
              -104.84917016857625,
              31.835672331601213
            ],
            [
              -104.84909888608676,
              31.83589091276941
            ],
            [
              -104.84904752360346,
              31.835974954134453
            ],
            [
              -104.84886604295924,
              31.836109302795663
            ],
            [
              -104.8487872821641,
              31.8360789328205
            ],
            [
              -104.84873212070977,
              31.836075503411973
            ],
            [
              -104.8485626958788,
              31.8360652103703
            ],
            [
              -104.84851525690937,
              31.83615934841695
            ],
            [
              -104.84835376766368,
              31.836115423685243
            ],
            [
              -104.84828265808709,
              31.836226353945865
            ],
            [
              -104.84825114503901,
              31.836219588338977
            ],
            [
              -104.84821572435864,
              31.83619263358546
            ],
            [
              -104.84808170355439,
              31.836219386884036
            ],
            [
              -104.8478183984858,
              31.83578510674209
            ]
          ]
        ]
      },
      "properties": {
        "Abbrev": null,
        "Alpha": null,
        "Area": null,
        "CS_ID": null,
        "CYCLE": null,
        "CycleDsolv": null,
        "DESCRIPT": null,
        "FEATUREKEY": null,
        "FEATUREK_1": null,
        "FEATURETYP": null,
        "FID_": null,
        "FID_Cross_": null,
        "FID_FanGeo": null,
        "FID_Fan_De": null,
        "FID_GIS_Re": null,
        "FID_Photo_": null,
        "FID_ftrip_": null,
        "FID_measur": null,
        "FID_patter": null,
        "FOURTH_ORD": null,
        "FOURTH_O_1": null,
        "FanID": null,
        "Fan_Del": null,
        "Fan_Del_sh": null,
        "FeatureT_1": null,
        "Geo_short": null,
        "Geography": null,
        "Gradient": null,
        "Hyperlink": null,
        "ID": null,
        "Id": 0,
        "Id_1": null,
        "LENGTH": null,
        "Location": null,
        "MAPSYMBOL": null,
        "MAP_SYMBOL": null,
        "MS_ID": null,
        "MidptX": null,
        "MidptY": null,
        "Mod_names": null,
        "NAME": null,
        "NAME_1": null,
        "Name": "10b-Rest Area",
        "OBJECTID": null,
        "OBJECTID_1": null,
        "ORDERBY": null,
        "ORIG_FID": null,
        "Offset": null,
        "PATTERNID": null,
        "PERSON": null,
        "PMLABEL": null,
        "PM_NAME": null,
        "PM_NAME_NE": null,
        "Pattern": null,
        "Profile": null,
        "REGION": null,
        "SECTIONARC": null,
        "SECTION_AB": null,
        "SOURCE": null,
        "STRAT_INTE": null,
        "SectionArc": null,
        "Shape_Ar_1": null,
        "Shape_Area": null,
        "Shape_Le_1": null,
        "Shape_Leng": null,
        "Shape_Length": null,
        "Stop": null,
        "Stop_Num": null,
        "Symbology": null
      }
    }
  ]
}