{
  "type": "FeatureCollection",
  "name": "GIS_Region_Large",
  "crs": {
    "type": "name",
    "properties": {
      "name": "urn:ogc:def:crs:OGC:1.3:CRS84"
    }
  },
  "features": [
    {
      "type": "Feature",
      "geometry": {
        "type": "Polygon",
        "coordinates": [
          [
            [
              -104.8507067696322,
              31.842176460140827
            ],
            [
              -104.84159351689023,
              31.846925530063686
            ],
            [
              -104.84205058727699,
              31.87258787339655
            ],
            [
              -104.83359492863838,
              31.87317837239864
            ],
            [
              -104.81250319683916,
              31.850902974664166
            ],
            [
              -104.80573182354014,
              31.83285538002965
            ],
            [
              -104.79004349476877,
              31.815193855860393
            ],
            [
              -104.78674528794639,
              31.806562555555786
            ],
            [
              -104.78409643416552,
              31.801401670124875
            ],
            [
              -104.77345015752203,
              31.78616507640585
            ],
            [
              -104.78528785623857,
              31.781587147583313
            ],
            [
              -104.79033676571278,
              31.780292382042077
            ],
            [
              -104.79978952784923,
              31.777350388961082
            ],
            [
              -104.81053232418202,
              31.77445973279987
            ],
            [
              -104.81930530151025,
              31.798222661150444
            ],
            [
              -104.8208366244394,
              31.80520837101984
            ],
            [
              -104.83766248730642,
              31.830094151978564
            ],
            [
              -104.8507067696322,
              31.842176460140827
            ]
          ]
        ]
      },
      "properties": {
        "Abbrev": null,
        "Alpha": null,
        "Area": null,
        "CS_ID": null,
        "CYCLE": null,
        "CycleDsolv": null,
        "DESCRIPT": null,
        "FEATUREKEY": 1.0,
        "FEATUREK_1": null,
        "FEATURETYP": "Map_Filter",
        "FID_": null,
        "FID_Cross_": null,
        "FID_FanGeo": null,
        "FID_Fan_De": null,
        "FID_GIS_Re": null,
        "FID_Photo_": null,
        "FID_ftrip_": null,
        "FID_measur": null,
        "FID_patter": null,
        "FOURTH_ORD": null,
        "FOURTH_O_1": null,
        "FanID": null,
        "Fan_Del": null,
        "Fan_Del_sh": null,
        "FeatureT_1": null,
        "Geo_short": null,
        "Geography": null,
        "Gradient": null,
        "Hyperlink": null,
        "ID": null,
        "Id": 2,
        "Id_1": null,
        "LENGTH": null,
        "Location": null,
        "MAPSYMBOL": "NDM",
        "MAP_SYMBOL": null,
        "MS_ID": null,
        "MidptX": null,
        "MidptY": null,
        "Mod_names": null,
        "NAME": "Northern Delaware Mountains",
        "NAME_1": null,
        "Name": null,
        "OBJECTID": 1,
        "OBJECTID_1": null,
        "ORDERBY": null,
        "ORIG_FID": null,
        "Offset": null,
        "PATTERNID": null,
        "PERSON": null,
        "PMLABEL": null,
        "PM_NAME": null,
        "PM_NAME_NE": null,
        "Pattern": null,
        "Profile": null,
        "REGION": null,
        "SECTIONARC": null,
        "SECTION_AB": null,
        "SOURCE": null,
        "STRAT_INTE": null,
        "SectionArc": null,
        "Shape_Ar_1": null,
        "Shape_Area": 31966545.1983,
        "Shape_Le_1": null,
        "Shape_Leng": 28405.7652732,
        "Shape_Length": null,
        "Stop": null,
        "Stop_Num": null,
        "Symbology": null
      }
    },
    {
      "type": "Feature",
      "geometry": {
        "type": "Polygon",
        "coordinates": [
          [
            [
              -104.81053232418202,
              31.77445973279987
            ],
            [
              -104.79978952784923,
              31.777350388961082
            ],
            [
              -104.79033676571278,
              31.780292382042077
            ],
            [
              -104.78528785623857,
              31.781587147583313
            ],
            [
              -104.77345015752203,
              31.78616507640585
            ],
            [
              -104.75712545922968,
              31.755463647577276
            ],
            [
              -104.72243278650814,
              31.750258424702142
            ],
            [
              -104.68799266201223,
              31.73286044783195
            ],
            [
              -104.6716668232631,
              31.694398917923493
            ],
            [
              -104.71022361799443,
              31.697395830422288
            ],
            [
              -104.74461139993745,
              31.69267220217913
            ],
            [
              -104.74670204554577,
              31.699691008726305
            ],
            [
              -104.7518054721205,
              31.707544390456032
            ],
            [
              -104.76077449153509,
              31.705694689682108
            ],
            [
              -104.77031656749828,
              31.70433664950652
            ],
            [
              -104.78595052701368,
              31.702398714150817
            ],
            [
              -104.78664638201323,
              31.71549420809209
            ],
            [
              -104.78666913508374,
              31.71549778332848
            ],
            [
              -104.78664594442003,
              31.715686482272375
            ],
            [
              -104.79020008467883,
              31.726512187020703
            ],
            [
              -104.80168915120947,
              31.746930035047786
            ],
            [
              -104.80612527612003,
              31.756556936770632
            ],
            [
              -104.81053232418202,
              31.77445973279987
            ]
          ]
        ]
      },
      "properties": {
        "Abbrev": null,
        "Alpha": null,
        "Area": null,
        "CS_ID": null,
        "CYCLE": null,
        "CycleDsolv": null,
        "DESCRIPT": null,
        "FEATUREKEY": 2.0,
        "FEATUREK_1": null,
        "FEATURETYP": "Map_Filter",
        "FID_": null,
        "FID_Cross_": null,
        "FID_FanGeo": null,
        "FID_Fan_De": null,
        "FID_GIS_Re": null,
        "FID_Photo_": null,
        "FID_ftrip_": null,
        "FID_measur": null,
        "FID_patter": null,
        "FOURTH_ORD": null,
        "FOURTH_O_1": null,
        "FanID": null,
        "Fan_Del": null,
        "Fan_Del_sh": null,
        "FeatureT_1": null,
        "Geo_short": null,
        "Geography": null,
        "Gradient": null,
        "Hyperlink": null,
        "ID": null,
        "Id": 3,
        "Id_1": null,
        "LENGTH": null,
        "Location": null,
        "MAPSYMBOL": "CDM",
        "MAP_SYMBOL": null,
        "MS_ID": null,
        "MidptX": null,
        "MidptY": null,
        "Mod_names": null,
        "NAME": "Central Delaware Mountains",
        "NAME_1": null,
        "Name": null,
        "OBJECTID": 2,
        "OBJECTID_1": null,
        "ORDERBY": null,
        "ORIG_FID": null,
        "Offset": null,
        "PATTERNID": null,
        "PERSON": null,
        "PMLABEL": null,
        "PM_NAME": null,
        "PM_NAME_NE": null,
        "Pattern": null,
        "Profile": null,
        "REGION": null,
        "SECTIONARC": null,
        "SECTION_AB": null,
        "SOURCE": null,
        "STRAT_INTE": null,
        "SectionArc": null,
        "Shape_Ar_1": null,
        "Shape_Area": 70774764.53,
        "Shape_Le_1": null,
        "Shape_Leng": 39637.9731749,
        "Shape_Length": null,
        "Stop": null,
        "Stop_Num": null,
        "Symbology": null
      }
    },
    {
      "type": "Feature",
      "geometry": {
        "type": "Polygon",
        "coordinates": [
          [
            [
              -104.78595052701368,
              31.702398714150817
            ],
            [
              -104.77031656749828,
              31.70433664950652
            ],
            [
              -104.76077449153509,
              31.705694689682108
            ],
            [
              -104.7518054721205,
              31.707544390456032
            ],
            [
              -104.74670204554577,
              31.699691008726305
            ],
            [
              -104.74458156266007,
              31.692821199395656
            ],
            [
              -104.70965948288813,
              31.697537032528913
            ],
            [
              -104.6717436216212,
              31.69449754542836
            ],
            [
              -104.66135931827016,
              31.67324154805111
            ],
            [
              -104.6602531286012,
              31.65430265807971
            ],
            [
              -104.66549993700261,
              31.632575732142843
            ],
            [
              -104.73369081788805,
              31.65279814257207
            ],
            [
              -104.73533155810136,
              31.65858207606586
            ],
            [
              -104.75249394278893,
              31.658946058842705
            ],
            [
              -104.76871325030005,
              31.655216236837457
            ],
            [
              -104.77462147962935,
              31.654639244674918
            ],
            [
              -104.77655325637362,
              31.660591020146274
            ],
            [
              -104.78487422925654,
              31.68578470000999
            ],
            [
              -104.78595052701368,
              31.702398714150817
            ]
          ]
        ]
      },
      "properties": {
        "Abbrev": null,
        "Alpha": null,
        "Area": null,
        "CS_ID": null,
        "CYCLE": null,
        "CycleDsolv": null,
        "DESCRIPT": null,
        "FEATUREKEY": 3.0,
        "FEATUREK_1": null,
        "FEATURETYP": "Map_Filter",
        "FID_": null,
        "FID_Cross_": null,
        "FID_FanGeo": null,
        "FID_Fan_De": null,
        "FID_GIS_Re": null,
        "FID_Photo_": null,
        "FID_ftrip_": null,
        "FID_measur": null,
        "FID_patter": null,
        "FOURTH_ORD": null,
        "FOURTH_O_1": null,
        "FanID": null,
        "Fan_Del": null,
        "Fan_Del_sh": null,
        "FeatureT_1": null,
        "Geo_short": null,
        "Geography": null,
        "Gradient": null,
        "Hyperlink": null,
        "ID": null,
        "Id": 4,
        "Id_1": null,
        "LENGTH": null,
        "Location": null,
        "MAPSYMBOL": "SDM",
        "MAP_SYMBOL": null,
        "MS_ID": null,
        "MidptX": null,
        "MidptY": null,
        "Mod_names": null,
        "NAME": "Southern Delaware Mountains",
        "NAME_1": null,
        "Name": null,
        "OBJECTID": 3,
        "OBJECTID_1": null,
        "ORDERBY": null,
        "ORIG_FID": null,
        "Offset": null,
        "PATTERNID": null,
        "PERSON": null,
        "PMLABEL": null,
        "PM_NAME": null,
        "PM_NAME_NE": null,
        "Pattern": null,
        "Profile": null,
        "REGION": null,
        "SECTIONARC": null,
        "SECTION_AB": null,
        "SOURCE": null,
        "STRAT_INTE": null,
        "SectionArc": null,
        "Shape_Ar_1": null,
        "Shape_Area": 62051336.408,
        "Shape_Le_1": null,
        "Shape_Leng": 35884.0268294,
        "Shape_Length": null,
        "Stop": null,
        "Stop_Num": null,
        "Symbology": null
      }
    },
    {
      "type": "Feature",
      "geometry": {
        "type": "Polygon",
        "coordinates": [
          [
            [
              -104.73850126517705,
              31.565149313746286
            ],
            [
              -104.74933666713616,
              31.570516592765486
            ],
            [
              -104.73854218499476,
              31.580532453036273
            ],
            [
              -104.72607142405046,
              31.590134122381734
            ],
            [
              -104.71733753284089,
              31.5946634242957
            ],
            [
              -104.69708647620668,
              31.59796875485497
            ],
            [
              -104.6750669470607,
              31.598146048013945
            ],
            [
              -104.67217923977809,
              31.595245742675647
            ],
            [
              -104.6695912332647,
              31.58512952023699
            ],
            [
              -104.66457345915565,
              31.578447321447992
            ],
            [
              -104.66125177952951,
              31.56756928266848
            ],
            [
              -104.65585906956788,
              31.561736634790556
            ],
            [
              -104.66147316909041,
              31.55791535714357
            ],
            [
              -104.69102412173282,
              31.54056707138379
            ],
            [
              -104.70252728071466,
              31.543425169398223
            ],
            [
              -104.71445881481486,
              31.552670363014823
            ],
            [
              -104.72840351556977,
              31.562418938073524
            ],
            [
              -104.73850126517705,
              31.565149313746286
            ]
          ]
        ]
      },
      "properties": {
        "Abbrev": null,
        "Alpha": null,
        "Area": null,
        "CS_ID": null,
        "CYCLE": null,
        "CycleDsolv": null,
        "DESCRIPT": null,
        "FEATUREKEY": 4.0,
        "FEATUREK_1": null,
        "FEATURETYP": "Map_Filter",
        "FID_": null,
        "FID_Cross_": null,
        "FID_FanGeo": null,
        "FID_Fan_De": null,
        "FID_GIS_Re": null,
        "FID_Photo_": null,
        "FID_ftrip_": null,
        "FID_measur": null,
        "FID_patter": null,
        "FOURTH_ORD": null,
        "FOURTH_O_1": null,
        "FanID": null,
        "Fan_Del": null,
        "Fan_Del_sh": null,
        "FeatureT_1": null,
        "Geo_short": null,
        "Geography": null,
        "Gradient": null,
        "Hyperlink": null,
        "ID": null,
        "Id": 6,
        "Id_1": null,
        "LENGTH": null,
        "Location": null,
        "MAPSYMBOL": "SIB",
        "MAP_SYMBOL": null,
        "MS_ID": null,
        "MidptX": null,
        "MidptY": null,
        "Mod_names": null,
        "NAME": "Sibley",
        "NAME_1": null,
        "Name": null,
        "OBJECTID": 4,
        "OBJECTID_1": null,
        "ORDERBY": null,
        "ORIG_FID": null,
        "Offset": null,
        "PATTERNID": null,
        "PERSON": null,
        "PMLABEL": null,
        "PM_NAME": null,
        "PM_NAME_NE": null,
        "Pattern": null,
        "Profile": null,
        "REGION": null,
        "SECTIONARC": null,
        "SECTION_AB": null,
        "SOURCE": null,
        "STRAT_INTE": null,
        "SectionArc": null,
        "Shape_Ar_1": null,
        "Shape_Area": 34376199.0205,
        "Shape_Le_1": null,
        "Shape_Leng": 23291.8419606,
        "Shape_Length": null,
        "Stop": null,
        "Stop_Num": null,
        "Symbology": null
      }
    },
    {
      "type": "Feature",
      "geometry": {
        "type": "Polygon",
        "coordinates": [
          [
            [
              -104.89273471139809,
              31.910518946846484
            ],
            [
              -104.88662268842029,
              31.91331946817149
            ],
            [
              -104.87676469713942,
              31.905694586519832
            ],
            [
              -104.86198611170323,
              31.89064835838471
            ],
            [
              -104.85660756931478,
              31.875010044486924
            ],
            [
              -104.84205058727699,
              31.87258787339655
            ],
            [
              -104.84159351689023,
              31.846925530063686
            ],
            [
              -104.8507067696322,
              31.842176460140827
            ],
            [
              -104.85641561347826,
              31.8471520233083
            ],
            [
              -104.8702320052303,
              31.873020465241357
            ],
            [
              -104.87938524344541,
              31.87763899285109
            ],
            [
              -104.87983923466166,
              31.889864750421747
            ],
            [
              -104.89273471139809,
              31.910518946846484
            ]
          ]
        ]
      },
      "properties": {
        "Abbrev": null,
        "Alpha": null,
        "Area": null,
        "CS_ID": null,
        "CYCLE": null,
        "CycleDsolv": null,
        "DESCRIPT": null,
        "FEATUREKEY": 5.0,
        "FEATUREK_1": null,
        "FEATURETYP": "Map_Filter",
        "FID_": null,
        "FID_Cross_": null,
        "FID_FanGeo": null,
        "FID_Fan_De": null,
        "FID_GIS_Re": null,
        "FID_Photo_": null,
        "FID_ftrip_": null,
        "FID_measur": null,
        "FID_patter": null,
        "FOURTH_ORD": null,
        "FOURTH_O_1": null,
        "FanID": null,
        "Fan_Del": null,
        "Fan_Del_sh": null,
        "FeatureT_1": null,
        "Geo_short": null,
        "Geography": null,
        "Gradient": null,
        "Hyperlink": null,
        "ID": null,
        "Id": 1,
        "Id_1": null,
        "LENGTH": null,
        "Location": null,
        "MAPSYMBOL": "SGM",
        "MAP_SYMBOL": null,
        "MS_ID": null,
        "MidptX": null,
        "MidptY": null,
        "Mod_names": null,
        "NAME": "Southern Guadalupe Mountains",
        "NAME_1": null,
        "Name": null,
        "OBJECTID": 5,
        "OBJECTID_1": null,
        "ORDERBY": null,
        "ORIG_FID": null,
        "Offset": null,
        "PATTERNID": null,
        "PERSON": null,
        "PMLABEL": null,
        "PM_NAME": null,
        "PM_NAME_NE": null,
        "Pattern": null,
        "Profile": null,
        "REGION": null,
        "SECTIONARC": null,
        "SECTION_AB": null,
        "SOURCE": null,
        "STRAT_INTE": null,
        "SectionArc": null,
        "Shape_Ar_1": null,
        "Shape_Area": 13074075.6518,
        "Shape_Le_1": null,
        "Shape_Leng": 20068.4866284,
        "Shape_Length": null,
        "Stop": null,
        "Stop_Num": null,
        "Symbology": null
      }
    },
    {
      "type": "Feature",
      "geometry": {
        "type": "Polygon",
        "coordinates": [
          [
            [
              -104.79981545482013,
              31.616200872543853
            ],
            [
              -104.78856163571787,
              31.625286814849773
            ],
            [
              -104.78041999966486,
              31.642193830378908
            ],
            [
              -104.77462147962935,
              31.654639244674918
            ],
            [
              -104.76871325030005,
              31.655216236837457
            ],
            [
              -104.75249394278893,
              31.658946058842705
            ],
            [
              -104.73533155810136,
              31.65858207606586
            ],
            [
              -104.73369081788805,
              31.65279814257207
            ],
            [
              -104.66549993700261,
              31.632575732142843
            ],
            [
              -104.6750669470607,
              31.598146048013945
            ],
            [
              -104.69708647620668,
              31.59796875485497
            ],
            [
              -104.71733753284089,
              31.5946634242957
            ],
            [
              -104.72607142405046,
              31.590134122381734
            ],
            [
              -104.73854218499476,
              31.580532453036273
            ],
            [
              -104.74933666713616,
              31.570516592765486
            ],
            [
              -104.7694386557625,
              31.568690158546026
            ],
            [
              -104.79640975998198,
              31.576148928224946
            ],
            [
              -104.79981545482013,
              31.616200872543853
            ]
          ]
        ]
      },
      "properties": {
        "Abbrev": null,
        "Alpha": null,
        "Area": null,
        "CS_ID": null,
        "CYCLE": null,
        "CycleDsolv": null,
        "DESCRIPT": null,
        "FEATUREKEY": 6.0,
        "FEATUREK_1": null,
        "FEATURETYP": "Map_Filter",
        "FID_": null,
        "FID_Cross_": null,
        "FID_FanGeo": null,
        "FID_Fan_De": null,
        "FID_GIS_Re": null,
        "FID_Photo_": null,
        "FID_ftrip_": null,
        "FID_measur": null,
        "FID_patter": null,
        "FOURTH_ORD": null,
        "FOURTH_O_1": null,
        "FanID": null,
        "Fan_Del": null,
        "Fan_Del_sh": null,
        "FeatureT_1": null,
        "Geo_short": null,
        "Geography": null,
        "Gradient": null,
        "Hyperlink": null,
        "ID": null,
        "Id": 5,
        "Id_1": null,
        "LENGTH": null,
        "Location": null,
        "MAPSYMBOL": "BIT",
        "MAP_SYMBOL": null,
        "MS_ID": null,
        "MidptX": null,
        "MidptY": null,
        "Mod_names": null,
        "NAME": "Bitterwell",
        "NAME_1": null,
        "Name": null,
        "OBJECTID": 6,
        "OBJECTID_1": null,
        "ORDERBY": null,
        "ORIG_FID": null,
        "Offset": null,
        "PATTERNID": null,
        "PERSON": null,
        "PMLABEL": null,
        "PM_NAME": null,
        "PM_NAME_NE": null,
        "Pattern": null,
        "Profile": null,
        "REGION": null,
        "SECTIONARC": null,
        "SECTION_AB": null,
        "SOURCE": null,
        "STRAT_INTE": null,
        "SectionArc": null,
        "Shape_Ar_1": null,
        "Shape_Area": 83202794.3538,
        "Shape_Le_1": null,
        "Shape_Leng": 37359.1119193,
        "Shape_Length": null,
        "Stop": null,
        "Stop_Num": null,
        "Symbology": null
      }
    },
    {
      "type": "Feature",
      "geometry": {
        "type": "Polygon",
        "coordinates": [
          [
            [
              -104.69102412173282,
              31.54056707138379
            ],
            [
              -104.67232128691978,
              31.551825290137614
            ],
            [
              -104.65585923113501,
              31.56169241456341
            ],
            [
              -104.6469197146233,
              31.556073592272156
            ],
            [
              -104.64508497221443,
              31.547596838957364
            ],
            [
              -104.63972593098413,
              31.533515671009024
            ],
            [
              -104.62783206182318,
              31.52085404056159
            ],
            [
              -104.6241523782535,
              31.507736101290664
            ],
            [
              -104.6171323657665,
              31.486008024196806
            ],
            [
              -104.61382549423693,
              31.46901464882274
            ],
            [
              -104.60269647407662,
              31.42031214213959
            ],
            [
              -104.61204144305962,
              31.411294330082846
            ],
            [
              -104.65215797369234,
              31.462582526570028
            ],
            [
              -104.6582378139701,
              31.48587254766353
            ],
            [
              -104.66187725317538,
              31.497291387160118
            ],
            [
              -104.69102412173282,
              31.54056707138379
            ]
          ]
        ]
      },
      "properties": {
        "Abbrev": null,
        "Alpha": null,
        "Area": null,
        "CS_ID": null,
        "CYCLE": null,
        "CycleDsolv": null,
        "DESCRIPT": null,
        "FEATUREKEY": 7.0,
        "FEATUREK_1": null,
        "FEATURETYP": "Map_Filter",
        "FID_": null,
        "FID_Cross_": null,
        "FID_FanGeo": null,
        "FID_Fan_De": null,
        "FID_GIS_Re": null,
        "FID_Photo_": null,
        "FID_ftrip_": null,
        "FID_measur": null,
        "FID_patter": null,
        "FOURTH_ORD": null,
        "FOURTH_O_1": null,
        "FanID": null,
        "Fan_Del": null,
        "Fan_Del_sh": null,
        "FeatureT_1": null,
        "Geo_short": null,
        "Geography": null,
        "Gradient": null,
        "Hyperlink": null,
        "ID": null,
        "Id": 7,
        "Id_1": null,
        "LENGTH": null,
        "Location": null,
        "MAPSYMBOL": "DMR",
        "MAP_SYMBOL": null,
        "MS_ID": null,
        "MidptX": null,
        "MidptY": null,
        "Mod_names": null,
        "NAME": "Delaware Mountain Ranch",
        "NAME_1": null,
        "Name": null,
        "OBJECTID": 7,
        "OBJECTID_1": null,
        "ORDERBY": null,
        "ORIG_FID": null,
        "Offset": null,
        "PATTERNID": null,
        "PERSON": null,
        "PMLABEL": null,
        "PM_NAME": null,
        "PM_NAME_NE": null,
        "Pattern": null,
        "Profile": null,
        "REGION": null,
        "SECTIONARC": null,
        "SECTION_AB": null,
        "SOURCE": null,
        "STRAT_INTE": null,
        "SectionArc": null,
        "Shape_Ar_1": null,
        "Shape_Area": 55241642.3484,
        "Shape_Le_1": null,
        "Shape_Leng": 38596.3310906,
        "Shape_Length": null,
        "Stop": null,
        "Stop_Num": null,
        "Symbology": null
      }
    }
  ]
}