{
  "type": "FeatureCollection",
  "name": "GIS_Region_Small",
  "crs": {
    "type": "name",
    "properties": {
      "name": "urn:ogc:def:crs:OGC:1.3:CRS84"
    }
  },
  "features": [
    {
      "type": "Feature",
      "geometry": {
        "type": "Polygon",
        "coordinates": [
          [
            [
              -104.8105323244871,
              31.774459732917926
            ],
            [
              -104.81930530140485,
              31.798222660629044
            ],
            [
              -104.820836624841,
              31.805208370950602
            ],
            [
              -104.80742395658716,
              31.80920874726627
            ],
            [
              -104.79004349552746,
              31.815193854965926
            ],
            [
              -104.78674528779385,
              31.806562555770295
            ],
            [
              -104.78409643439092,
              31.801401670044132
            ],
            [
              -104.77345015752203,
              31.78616507640585
            ],
            [
              -104.78528785623857,
              31.781587147583313
            ],
            [
              -104.79033676571278,
              31.780292382042077
            ],
            [
              -104.79978952784923,
              31.777350388961082
            ],
            [
              -104.8105323244871,
              31.774459732917926
            ]
          ]
        ]
      },
      "properties": {
        "Abbrev": null,
        "Alpha": null,
        "Area": null,
        "CS_ID": null,
        "CYCLE": null,
        "CycleDsolv": null,
        "DESCRIPT": null,
        "FEATUREKEY": 1.0,
        "FEATUREK_1": null,
        "FEATURETYP": "Map_Filter",
        "FID_": null,
        "FID_Cross_": null,
        "FID_FanGeo": null,
        "FID_Fan_De": null,
        "FID_GIS_Re": null,
        "FID_Photo_": null,
        "FID_ftrip_": null,
        "FID_measur": null,
        "FID_patter": null,
        "FOURTH_ORD": null,
        "FOURTH_O_1": null,
        "FanID": null,
        "Fan_Del": null,
        "Fan_Del_sh": null,
        "FeatureT_1": null,
        "Geo_short": null,
        "Geography": null,
        "Gradient": null,
        "Hyperlink": null,
        "ID": null,
        "Id": 4,
        "Id_1": null,
        "LENGTH": null,
        "Location": null,
        "MAPSYMBOL": null,
        "MAP_SYMBOL": null,
        "MS_ID": null,
        "MidptX": null,
        "MidptY": null,
        "Mod_names": null,
        "NAME": null,
        "NAME_1": null,
        "Name": null,
        "OBJECTID": null,
        "OBJECTID_1": null,
        "ORDERBY": null,
        "ORIG_FID": null,
        "Offset": null,
        "PATTERNID": null,
        "PERSON": null,
        "PMLABEL": null,
        "PM_NAME": null,
        "PM_NAME_NE": null,
        "Pattern": null,
        "Profile": null,
        "REGION": null,
        "SECTIONARC": null,
        "SECTION_AB": null,
        "SOURCE": null,
        "STRAT_INTE": null,
        "SectionArc": "Brushy Mesa",
        "Shape_Ar_1": null,
        "Shape_Area": null,
        "Shape_Le_1": null,
        "Shape_Leng": null,
        "Shape_Length": null,
        "Stop": null,
        "Stop_Num": null,
        "Symbology": null
      }
    },
    {
      "type": "Feature",
      "geometry": {
        "type": "Polygon",
        "coordinates": [
          [
            [
              -104.8105323244871,
              31.774459732917926
            ],
            [
              -104.79978952784923,
              31.777350388961082
            ],
            [
              -104.79033676571278,
              31.780292382042077
            ],
            [
              -104.787950420083,
              31.771817920506688
            ],
            [
              -104.7791833353839,
              31.75781916202204
            ],
            [
              -104.77775183699262,
              31.75330402046787
            ],
            [
              -104.79042452536649,
              31.750118736432672
            ],
            [
              -104.80168915189975,
              31.746930034942423
            ],
            [
              -104.80612527590822,
              31.756556936472354
            ],
            [
              -104.8105323244871,
              31.774459732917926
            ]
          ]
        ]
      },
      "properties": {
        "Abbrev": null,
        "Alpha": null,
        "Area": null,
        "CS_ID": null,
        "CYCLE": null,
        "CycleDsolv": null,
        "DESCRIPT": null,
        "FEATUREKEY": 2.0,
        "FEATUREK_1": null,
        "FEATURETYP": "Map_Filter",
        "FID_": null,
        "FID_Cross_": null,
        "FID_FanGeo": null,
        "FID_Fan_De": null,
        "FID_GIS_Re": null,
        "FID_Photo_": null,
        "FID_ftrip_": null,
        "FID_measur": null,
        "FID_patter": null,
        "FOURTH_ORD": null,
        "FOURTH_O_1": null,
        "FanID": null,
        "Fan_Del": null,
        "Fan_Del_sh": null,
        "FeatureT_1": null,
        "Geo_short": null,
        "Geography": null,
        "Gradient": null,
        "Hyperlink": null,
        "ID": null,
        "Id": 5,
        "Id_1": null,
        "LENGTH": null,
        "Location": null,
        "MAPSYMBOL": null,
        "MAP_SYMBOL": null,
        "MS_ID": null,
        "MidptX": null,
        "MidptY": null,
        "Mod_names": null,
        "NAME": null,
        "NAME_1": null,
        "Name": null,
        "OBJECTID": null,
        "OBJECTID_1": null,
        "ORDERBY": null,
        "ORIG_FID": null,
        "Offset": null,
        "PATTERNID": null,
        "PERSON": null,
        "PMLABEL": null,
        "PM_NAME": null,
        "PM_NAME_NE": null,
        "Pattern": null,
        "Profile": null,
        "REGION": null,
        "SECTIONARC": null,
        "SECTION_AB": null,
        "SOURCE": null,
        "STRAT_INTE": null,
        "SectionArc": "Popo_Pollo",
        "Shape_Ar_1": null,
        "Shape_Area": null,
        "Shape_Le_1": null,
        "Shape_Leng": null,
        "Shape_Length": null,
        "Stop": null,
        "Stop_Num": null,
        "Symbology": null
      }
    },
    {
      "type": "Feature",
      "geometry": {
        "type": "Polygon",
        "coordinates": [
          [
            [
              -104.78595052775596,
              31.70239871421751
            ],
            [
              -104.77031656704142,
              31.704336649059407
            ],
            [
              -104.76077449141255,
              31.705694690212518
            ],
            [
              -104.7518054721872,
              31.707544390166856
            ],
            [
              -104.74670204521898,
              31.699691008214476
            ],
            [
              -104.74458156266007,
              31.692821199395656
            ],
            [
              -104.74105424679213,
              31.68105479861452
            ],
            [
              -104.73454223145735,
              31.666469414800407
            ],
            [
              -104.73533155810136,
              31.65858207606586
            ],
            [
              -104.75249394317845,
              31.65894605923153
            ],
            [
              -104.76871324946369,
              31.655216237267947
            ],
            [
              -104.77462148015688,
              31.65463924508864
            ],
            [
              -104.77655325621458,
              31.660591019552598
            ],
            [
              -104.78487422970836,
              31.68578470041096
            ],
            [
              -104.78595052775596,
              31.70239871421751
            ]
          ]
        ]
      },
      "properties": {
        "Abbrev": null,
        "Alpha": null,
        "Area": null,
        "CS_ID": null,
        "CYCLE": null,
        "CycleDsolv": null,
        "DESCRIPT": null,
        "FEATUREKEY": 3.0,
        "FEATUREK_1": null,
        "FEATURETYP": "Map_Filter",
        "FID_": null,
        "FID_Cross_": null,
        "FID_FanGeo": null,
        "FID_Fan_De": null,
        "FID_GIS_Re": null,
        "FID_Photo_": null,
        "FID_ftrip_": null,
        "FID_measur": null,
        "FID_patter": null,
        "FOURTH_ORD": null,
        "FOURTH_O_1": null,
        "FanID": null,
        "Fan_Del": null,
        "Fan_Del_sh": null,
        "FeatureT_1": null,
        "Geo_short": null,
        "Geography": null,
        "Gradient": null,
        "Hyperlink": null,
        "ID": null,
        "Id": 9,
        "Id_1": null,
        "LENGTH": null,
        "Location": null,
        "MAPSYMBOL": null,
        "MAP_SYMBOL": null,
        "MS_ID": null,
        "MidptX": null,
        "MidptY": null,
        "Mod_names": null,
        "NAME": null,
        "NAME_1": null,
        "Name": null,
        "OBJECTID": null,
        "OBJECTID_1": null,
        "ORDERBY": null,
        "ORIG_FID": null,
        "Offset": null,
        "PATTERNID": null,
        "PERSON": null,
        "PMLABEL": null,
        "PM_NAME": null,
        "PM_NAME_NE": null,
        "Pattern": null,
        "Profile": null,
        "REGION": null,
        "SECTIONARC": null,
        "SECTION_AB": null,
        "SOURCE": null,
        "STRAT_INTE": null,
        "SectionArc": "Colleen_RockArt",
        "Shape_Ar_1": null,
        "Shape_Area": null,
        "Shape_Le_1": null,
        "Shape_Leng": null,
        "Shape_Length": null,
        "Stop": null,
        "Stop_Num": null,
        "Symbology": null
      }
    },
    {
      "type": "Feature",
      "geometry": {
        "type": "Polygon",
        "coordinates": [
          [
            [
              -104.80168915189975,
              31.746930034942423
            ],
            [
              -104.79042452536649,
              31.750118736432672
            ],
            [
              -104.77775183699262,
              31.75330402046787
            ],
            [
              -104.77427416424707,
              31.75029234281617
            ],
            [
              -104.76684379175464,
              31.743820087217223
            ],
            [
              -104.75694440900641,
              31.727412240018875
            ],
            [
              -104.75438718590513,
              31.718989797486184
            ],
            [
              -104.7518054721872,
              31.707544390166856
            ],
            [
              -104.76077449141255,
              31.705694690212518
            ],
            [
              -104.77031656704142,
              31.704336649059407
            ],
            [
              -104.78595052775596,
              31.70239871421751
            ],
            [
              -104.78664638250591,
              31.71549420793333
            ],
            [
              -104.78664594491273,
              31.715686482099187
            ],
            [
              -104.7902000838375,
              31.726512187095597
            ],
            [
              -104.80168915189975,
              31.746930034942423
            ]
          ]
        ]
      },
      "properties": {
        "Abbrev": null,
        "Alpha": null,
        "Area": null,
        "CS_ID": null,
        "CYCLE": null,
        "CycleDsolv": null,
        "DESCRIPT": null,
        "FEATUREKEY": 4.0,
        "FEATUREK_1": null,
        "FEATURETYP": "Map_Filter",
        "FID_": null,
        "FID_Cross_": null,
        "FID_FanGeo": null,
        "FID_Fan_De": null,
        "FID_GIS_Re": null,
        "FID_Photo_": null,
        "FID_ftrip_": null,
        "FID_measur": null,
        "FID_patter": null,
        "FOURTH_ORD": null,
        "FOURTH_O_1": null,
        "FanID": null,
        "Fan_Del": null,
        "Fan_Del_sh": null,
        "FeatureT_1": null,
        "Geo_short": null,
        "Geography": null,
        "Gradient": null,
        "Hyperlink": null,
        "ID": null,
        "Id": 7,
        "Id_1": null,
        "LENGTH": null,
        "Location": null,
        "MAPSYMBOL": null,
        "MAP_SYMBOL": null,
        "MS_ID": null,
        "MidptX": null,
        "MidptY": null,
        "Mod_names": null,
        "NAME": null,
        "NAME_1": null,
        "Name": null,
        "OBJECTID": null,
        "OBJECTID_1": null,
        "ORDERBY": null,
        "ORIG_FID": null,
        "Offset": null,
        "PATTERNID": null,
        "PERSON": null,
        "PMLABEL": null,
        "PM_NAME": null,
        "PM_NAME_NE": null,
        "Pattern": null,
        "Profile": null,
        "REGION": null,
        "SECTIONARC": null,
        "SECTION_AB": null,
        "SOURCE": null,
        "STRAT_INTE": null,
        "SectionArc": "Buena Vista",
        "Shape_Ar_1": null,
        "Shape_Area": null,
        "Shape_Le_1": null,
        "Shape_Leng": null,
        "Shape_Length": null,
        "Stop": null,
        "Stop_Num": null,
        "Symbology": null
      }
    },
    {
      "type": "Feature",
      "geometry": {
        "type": "Polygon",
        "coordinates": [
          [
            [
              -104.7284035156702,
              31.5624189389215
            ],
            [
              -104.7385012654944,
              31.565149314467288
            ],
            [
              -104.74933666643402,
              31.570516592696258
            ],
            [
              -104.73854218499476,
              31.580532453036273
            ],
            [
              -104.72607142414141,
              31.590134121600826
            ],
            [
              -104.71733753284089,
              31.5946634242957
            ],
            [
              -104.69708647620668,
              31.59796875485497
            ],
            [
              -104.67506694701721,
              31.598146048094087
            ],
            [
              -104.67217923886308,
              31.595245742641467
            ],
            [
              -104.6695912332647,
              31.58512952023699
            ],
            [
              -104.68030103911154,
              31.579010025731893
            ],
            [
              -104.71750872265939,
              31.565690361658387
            ],
            [
              -104.7284035156702,
              31.5624189389215
            ]
          ]
        ]
      },
      "properties": {
        "Abbrev": null,
        "Alpha": null,
        "Area": null,
        "CS_ID": null,
        "CYCLE": null,
        "CycleDsolv": null,
        "DESCRIPT": null,
        "FEATUREKEY": 5.0,
        "FEATUREK_1": null,
        "FEATURETYP": "Map_Filter",
        "FID_": null,
        "FID_Cross_": null,
        "FID_FanGeo": null,
        "FID_Fan_De": null,
        "FID_GIS_Re": null,
        "FID_Photo_": null,
        "FID_ftrip_": null,
        "FID_measur": null,
        "FID_patter": null,
        "FOURTH_ORD": null,
        "FOURTH_O_1": null,
        "FanID": null,
        "Fan_Del": null,
        "Fan_Del_sh": null,
        "FeatureT_1": null,
        "Geo_short": null,
        "Geography": null,
        "Gradient": null,
        "Hyperlink": null,
        "ID": null,
        "Id": 14,
        "Id_1": null,
        "LENGTH": null,
        "Location": null,
        "MAPSYMBOL": null,
        "MAP_SYMBOL": null,
        "MS_ID": null,
        "MidptX": null,
        "MidptY": null,
        "Mod_names": null,
        "NAME": null,
        "NAME_1": null,
        "Name": null,
        "OBJECTID": null,
        "OBJECTID_1": null,
        "ORDERBY": null,
        "ORIG_FID": null,
        "Offset": null,
        "PATTERNID": null,
        "PERSON": null,
        "PMLABEL": null,
        "PM_NAME": null,
        "PM_NAME_NE": null,
        "Pattern": null,
        "Profile": null,
        "REGION": null,
        "SECTIONARC": null,
        "SECTION_AB": null,
        "SOURCE": null,
        "STRAT_INTE": null,
        "SectionArc": "Codorniz Canyon",
        "Shape_Ar_1": null,
        "Shape_Area": null,
        "Shape_Le_1": null,
        "Shape_Leng": null,
        "Shape_Length": null,
        "Stop": null,
        "Stop_Num": null,
        "Symbology": null
      }
    },
    {
      "type": "Feature",
      "geometry": {
        "type": "Polygon",
        "coordinates": [
          [
            [
              -104.87023200536666,
              31.8730204648655
            ],
            [
              -104.8566075690697,
              31.875010044627047
            ],
            [
              -104.84205058699577,
              31.872587873584497
            ],
            [
              -104.84159351681416,
              31.846925529560366
            ],
            [
              -104.85070677054962,
              31.84217646047051
            ],
            [
              -104.85641561307564,
              31.847152023029388
            ],
            [
              -104.87023200536666,
              31.8730204648655
            ]
          ]
        ]
      },
      "properties": {
        "Abbrev": null,
        "Alpha": null,
        "Area": null,
        "CS_ID": null,
        "CYCLE": null,
        "CycleDsolv": null,
        "DESCRIPT": null,
        "FEATUREKEY": 6.0,
        "FEATUREK_1": null,
        "FEATURETYP": "Map_Filter",
        "FID_": null,
        "FID_Cross_": null,
        "FID_FanGeo": null,
        "FID_Fan_De": null,
        "FID_GIS_Re": null,
        "FID_Photo_": null,
        "FID_ftrip_": null,
        "FID_measur": null,
        "FID_patter": null,
        "FOURTH_ORD": null,
        "FOURTH_O_1": null,
        "FanID": null,
        "Fan_Del": null,
        "Fan_Del_sh": null,
        "FeatureT_1": null,
        "Geo_short": null,
        "Geography": null,
        "Gradient": null,
        "Hyperlink": null,
        "ID": null,
        "Id": 2,
        "Id_1": null,
        "LENGTH": null,
        "Location": null,
        "MAPSYMBOL": null,
        "MAP_SYMBOL": null,
        "MS_ID": null,
        "MidptX": null,
        "MidptY": null,
        "Mod_names": null,
        "NAME": null,
        "NAME_1": null,
        "Name": null,
        "OBJECTID": null,
        "OBJECTID_1": null,
        "ORDERBY": null,
        "ORIG_FID": null,
        "Offset": null,
        "PATTERNID": null,
        "PERSON": null,
        "PMLABEL": null,
        "PM_NAME": null,
        "PM_NAME_NE": null,
        "Pattern": null,
        "Profile": null,
        "REGION": null,
        "SECTIONARC": null,
        "SECTION_AB": null,
        "SOURCE": null,
        "STRAT_INTE": null,
        "SectionArc": "Salt Flat Bench",
        "Shape_Ar_1": null,
        "Shape_Area": null,
        "Shape_Le_1": null,
        "Shape_Leng": null,
        "Shape_Length": null,
        "Stop": null,
        "Stop_Num": null,
        "Symbology": null
      }
    },
    {
      "type": "Feature",
      "geometry": {
        "type": "Polygon",
        "coordinates": [
          [
            [
              -104.8927347120633,
              31.910518946698392
            ],
            [
              -104.8866226888808,
              31.913319468245547
            ],
            [
              -104.87676469681834,
              31.90569458646664
            ],
            [
              -104.86198611216602,
              31.890648358214378
            ],
            [
              -104.8566075690697,
              31.875010044627047
            ],
            [
              -104.87023200536666,
              31.8730204648655
            ],
            [
              -104.87938524290965,
              31.87763899307819
            ],
            [
              -104.87983923444368,
              31.889864749710387
            ],
            [
              -104.8927347120633,
              31.910518946698392
            ]
          ]
        ]
      },
      "properties": {
        "Abbrev": null,
        "Alpha": null,
        "Area": null,
        "CS_ID": null,
        "CYCLE": null,
        "CycleDsolv": null,
        "DESCRIPT": null,
        "FEATUREKEY": 7.0,
        "FEATUREK_1": null,
        "FEATURETYP": "Map_Filter",
        "FID_": null,
        "FID_Cross_": null,
        "FID_FanGeo": null,
        "FID_Fan_De": null,
        "FID_GIS_Re": null,
        "FID_Photo_": null,
        "FID_ftrip_": null,
        "FID_measur": null,
        "FID_patter": null,
        "FOURTH_ORD": null,
        "FOURTH_O_1": null,
        "FanID": null,
        "Fan_Del": null,
        "Fan_Del_sh": null,
        "FeatureT_1": null,
        "Geo_short": null,
        "Geography": null,
        "Gradient": null,
        "Hyperlink": null,
        "ID": null,
        "Id": 1,
        "Id_1": null,
        "LENGTH": null,
        "Location": null,
        "MAPSYMBOL": null,
        "MAP_SYMBOL": null,
        "MS_ID": null,
        "MidptX": null,
        "MidptY": null,
        "Mod_names": null,
        "NAME": null,
        "NAME_1": null,
        "Name": null,
        "OBJECTID": null,
        "OBJECTID_1": null,
        "ORDERBY": null,
        "ORIG_FID": null,
        "Offset": null,
        "PATTERNID": null,
        "PERSON": null,
        "PMLABEL": null,
        "PM_NAME": null,
        "PM_NAME_NE": null,
        "Pattern": null,
        "Profile": null,
        "REGION": null,
        "SECTIONARC": null,
        "SECTION_AB": null,
        "SOURCE": null,
        "STRAT_INTE": null,
        "SectionArc": "Western Escarpment",
        "Shape_Ar_1": null,
        "Shape_Area": null,
        "Shape_Le_1": null,
        "Shape_Leng": null,
        "Shape_Length": null,
        "Stop": null,
        "Stop_Num": null,
        "Symbology": null
      }
    },
    {
      "type": "Feature",
      "geometry": {
        "type": "Polygon",
        "coordinates": [
          [
            [
              -104.85070677054962,
              31.84217646047051
            ],
            [
              -104.84159351681416,
              31.846925529560366
            ],
            [
              -104.84205058699577,
              31.872587873584497
            ],
            [
              -104.83359492852625,
              31.87317837215757
            ],
            [
              -104.81250319714611,
              31.850902975283837
            ],
            [
              -104.80573182414642,
              31.832855380174497
            ],
            [
              -104.79004349552746,
              31.815193854965926
            ],
            [
              -104.80742395658716,
              31.80920874726627
            ],
            [
              -104.820836624841,
              31.805208370950602
            ],
            [
              -104.83766248695171,
              31.830094151899743
            ],
            [
              -104.85070677054962,
              31.84217646047051
            ]
          ]
        ]
      },
      "properties": {
        "Abbrev": null,
        "Alpha": null,
        "Area": null,
        "CS_ID": null,
        "CYCLE": null,
        "CycleDsolv": null,
        "DESCRIPT": null,
        "FEATUREKEY": 8.0,
        "FEATUREK_1": null,
        "FEATURETYP": "Map_Filter",
        "FID_": null,
        "FID_Cross_": null,
        "FID_FanGeo": null,
        "FID_Fan_De": null,
        "FID_GIS_Re": null,
        "FID_Photo_": null,
        "FID_ftrip_": null,
        "FID_measur": null,
        "FID_patter": null,
        "FOURTH_ORD": null,
        "FOURTH_O_1": null,
        "FanID": null,
        "Fan_Del": null,
        "Fan_Del_sh": null,
        "FeatureT_1": null,
        "Geo_short": null,
        "Geography": null,
        "Gradient": null,
        "Hyperlink": null,
        "ID": null,
        "Id": 3,
        "Id_1": null,
        "LENGTH": null,
        "Location": null,
        "MAPSYMBOL": null,
        "MAP_SYMBOL": null,
        "MS_ID": null,
        "MidptX": null,
        "MidptY": null,
        "Mod_names": null,
        "NAME": null,
        "NAME_1": null,
        "Name": null,
        "OBJECTID": null,
        "OBJECTID_1": null,
        "ORDERBY": null,
        "ORIG_FID": null,
        "Offset": null,
        "PATTERNID": null,
        "PERSON": null,
        "PMLABEL": null,
        "PM_NAME": null,
        "PM_NAME_NE": null,
        "Pattern": null,
        "Profile": null,
        "REGION": null,
        "SECTIONARC": null,
        "SECTION_AB": null,
        "SOURCE": null,
        "STRAT_INTE": null,
        "SectionArc": "Guadalupe Canyon",
        "Shape_Ar_1": null,
        "Shape_Area": null,
        "Shape_Le_1": null,
        "Shape_Leng": null,
        "Shape_Length": null,
        "Stop": null,
        "Stop_Num": null,
        "Symbology": null
      }
    },
    {
      "type": "Feature",
      "geometry": {
        "type": "Polygon",
        "coordinates": [
          [
            [
              -104.79033676571278,
              31.780292382042077
            ],
            [
              -104.78528785623857,
              31.781587147583313
            ],
            [
              -104.77345015752203,
              31.78616507640585
            ],
            [
              -104.75719220351564,
              31.755473652378974
            ],
            [
              -104.77427416424707,
              31.75029234281617
            ],
            [
              -104.77778614218857,
              31.753355918709804
            ],
            [
              -104.7791833353839,
              31.75781916202204
            ],
            [
              -104.787950420083,
              31.771817920506688
            ],
            [
              -104.79033676571278,
              31.780292382042077
            ]
          ]
        ]
      },
      "properties": {
        "Abbrev": null,
        "Alpha": null,
        "Area": null,
        "CS_ID": null,
        "CYCLE": null,
        "CycleDsolv": null,
        "DESCRIPT": null,
        "FEATUREKEY": 9.0,
        "FEATUREK_1": null,
        "FEATURETYP": "Map_Filter",
        "FID_": null,
        "FID_Cross_": null,
        "FID_FanGeo": null,
        "FID_Fan_De": null,
        "FID_GIS_Re": null,
        "FID_Photo_": null,
        "FID_ftrip_": null,
        "FID_measur": null,
        "FID_patter": null,
        "FOURTH_ORD": null,
        "FOURTH_O_1": null,
        "FanID": null,
        "Fan_Del": null,
        "Fan_Del_sh": null,
        "FeatureT_1": null,
        "Geo_short": null,
        "Geography": null,
        "Gradient": null,
        "Hyperlink": null,
        "ID": null,
        "Id": 6,
        "Id_1": null,
        "LENGTH": null,
        "Location": null,
        "MAPSYMBOL": null,
        "MAP_SYMBOL": null,
        "MS_ID": null,
        "MidptX": null,
        "MidptY": null,
        "Mod_names": null,
        "NAME": null,
        "NAME_1": null,
        "Name": null,
        "OBJECTID": null,
        "OBJECTID_1": null,
        "ORDERBY": null,
        "ORIG_FID": null,
        "Offset": null,
        "PATTERNID": null,
        "PERSON": null,
        "PMLABEL": null,
        "PM_NAME": null,
        "PM_NAME_NE": null,
        "Pattern": null,
        "Profile": null,
        "REGION": null,
        "SECTIONARC": null,
        "SECTION_AB": null,
        "SOURCE": null,
        "STRAT_INTE": null,
        "SectionArc": "Plane Crash Canyon",
        "Shape_Ar_1": null,
        "Shape_Area": null,
        "Shape_Le_1": null,
        "Shape_Leng": null,
        "Shape_Length": null,
        "Stop": null,
        "Stop_Num": null,
        "Symbology": null
      }
    },
    {
      "type": "Feature",
      "geometry": {
        "type": "Polygon",
        "coordinates": [
          [
            [
              -104.77427416424707,
              31.75029234281617
            ],
            [
              -104.75719220351564,
              31.755473652378974
            ],
            [
              -104.72243278633763,
              31.75025842452357
            ],
            [
              -104.6879926618868,
              31.732860447164096
            ],
            [
              -104.67174362217541,
              31.694497544726918
            ],
            [
              -104.70965948212384,
              31.697537032404732
            ],
            [
              -104.7445820017641,
              31.692821139541394
            ],
            [
              -104.74670204521898,
              31.699691008214476
            ],
            [
              -104.7518054721872,
              31.707544390166856
            ],
            [
              -104.75438718590513,
              31.718989797486184
            ],
            [
              -104.75694440900641,
              31.727412240018875
            ],
            [
              -104.76684379175464,
              31.743820087217223
            ],
            [
              -104.77427416424707,
              31.75029234281617
            ]
          ]
        ]
      },
      "properties": {
        "Abbrev": null,
        "Alpha": null,
        "Area": null,
        "CS_ID": null,
        "CYCLE": null,
        "CycleDsolv": null,
        "DESCRIPT": null,
        "FEATUREKEY": 10.0,
        "FEATUREK_1": null,
        "FEATURETYP": "Map_Filter",
        "FID_": null,
        "FID_Cross_": null,
        "FID_FanGeo": null,
        "FID_Fan_De": null,
        "FID_GIS_Re": null,
        "FID_Photo_": null,
        "FID_ftrip_": null,
        "FID_measur": null,
        "FID_patter": null,
        "FOURTH_ORD": null,
        "FOURTH_O_1": null,
        "FanID": null,
        "Fan_Del": null,
        "Fan_Del_sh": null,
        "FeatureT_1": null,
        "Geo_short": null,
        "Geography": null,
        "Gradient": null,
        "Hyperlink": null,
        "ID": null,
        "Id": 8,
        "Id_1": null,
        "LENGTH": null,
        "Location": null,
        "MAPSYMBOL": null,
        "MAP_SYMBOL": null,
        "MS_ID": null,
        "MidptX": null,
        "MidptY": null,
        "Mod_names": null,
        "NAME": null,
        "NAME_1": null,
        "Name": null,
        "OBJECTID": null,
        "OBJECTID_1": null,
        "ORDERBY": null,
        "ORIG_FID": null,
        "Offset": null,
        "PATTERNID": null,
        "PERSON": null,
        "PMLABEL": null,
        "PM_NAME": null,
        "PM_NAME_NE": null,
        "Pattern": null,
        "Profile": null,
        "REGION": null,
        "SECTIONARC": null,
        "SECTION_AB": null,
        "SOURCE": null,
        "STRAT_INTE": null,
        "SectionArc": "Kunintz Hollow",
        "Shape_Ar_1": null,
        "Shape_Area": null,
        "Shape_Le_1": null,
        "Shape_Leng": null,
        "Shape_Length": null,
        "Stop": null,
        "Stop_Num": null,
        "Symbology": null
      }
    },
    {
      "type": "Feature",
      "geometry": {
        "type": "Polygon",
        "coordinates": [
          [
            [
              -104.7445820017641,
              31.692821139541394
            ],
            [
              -104.70965948212384,
              31.697537032404732
            ],
            [
              -104.67174362217541,
              31.694497544726918
            ],
            [
              -104.66135931837901,
              31.673241548326295
            ],
            [
              -104.66025312832537,
              31.65430265822972
            ],
            [
              -104.6654999377463,
              31.632575731770014
            ],
            [
              -104.73369081788805,
              31.65279814257207
            ],
            [
              -104.73533155810136,
              31.65858207606586
            ],
            [
              -104.73454223145735,
              31.666469414800407
            ],
            [
              -104.74105424679213,
              31.68105479861452
            ],
            [
              -104.7445820017641,
              31.692821139541394
            ]
          ]
        ]
      },
      "properties": {
        "Abbrev": null,
        "Alpha": null,
        "Area": null,
        "CS_ID": null,
        "CYCLE": null,
        "CycleDsolv": null,
        "DESCRIPT": null,
        "FEATUREKEY": 11.0,
        "FEATUREK_1": null,
        "FEATURETYP": "Map_Filter",
        "FID_": null,
        "FID_Cross_": null,
        "FID_FanGeo": null,
        "FID_Fan_De": null,
        "FID_GIS_Re": null,
        "FID_Photo_": null,
        "FID_ftrip_": null,
        "FID_measur": null,
        "FID_patter": null,
        "FOURTH_ORD": null,
        "FOURTH_O_1": null,
        "FanID": null,
        "Fan_Del": null,
        "Fan_Del_sh": null,
        "FeatureT_1": null,
        "Geo_short": null,
        "Geography": null,
        "Gradient": null,
        "Hyperlink": null,
        "ID": null,
        "Id": 10,
        "Id_1": null,
        "LENGTH": null,
        "Location": null,
        "MAPSYMBOL": null,
        "MAP_SYMBOL": null,
        "MS_ID": null,
        "MidptX": null,
        "MidptY": null,
        "Mod_names": null,
        "NAME": null,
        "NAME_1": null,
        "Name": null,
        "OBJECTID": null,
        "OBJECTID_1": null,
        "ORDERBY": null,
        "ORIG_FID": null,
        "Offset": null,
        "PATTERNID": null,
        "PERSON": null,
        "PMLABEL": null,
        "PM_NAME": null,
        "PM_NAME_NE": null,
        "Pattern": null,
        "Profile": null,
        "REGION": null,
        "SECTIONARC": null,
        "SECTION_AB": null,
        "SOURCE": null,
        "STRAT_INTE": null,
        "SectionArc": "Chico Draw",
        "Shape_Ar_1": null,
        "Shape_Area": null,
        "Shape_Le_1": null,
        "Shape_Leng": null,
        "Shape_Length": null,
        "Stop": null,
        "Stop_Num": null,
        "Symbology": null
      }
    },
    {
      "type": "Feature",
      "geometry": {
        "type": "Polygon",
        "coordinates": [
          [
            [
              -104.77462148015688,
              31.65463924508864
            ],
            [
              -104.76871324946369,
              31.655216237267947
            ],
            [
              -104.75249394317845,
              31.65894605923153
            ],
            [
              -104.73533155810136,
              31.65858207606586
            ],
            [
              -104.73369081788805,
              31.65279814257207
            ],
            [
              -104.73074854176937,
              31.62494343188055
            ],
            [
              -104.78856163571787,
              31.625286814849773
            ],
            [
              -104.78042000018571,
              31.6421938308859
            ],
            [
              -104.77462148015688,
              31.65463924508864
            ]
          ]
        ]
      },
      "properties": {
        "Abbrev": null,
        "Alpha": null,
        "Area": null,
        "CS_ID": null,
        "CYCLE": null,
        "CycleDsolv": null,
        "DESCRIPT": null,
        "FEATUREKEY": 12.0,
        "FEATUREK_1": null,
        "FEATURETYP": "Map_Filter",
        "FID_": null,
        "FID_Cross_": null,
        "FID_FanGeo": null,
        "FID_Fan_De": null,
        "FID_GIS_Re": null,
        "FID_Photo_": null,
        "FID_ftrip_": null,
        "FID_measur": null,
        "FID_patter": null,
        "FOURTH_ORD": null,
        "FOURTH_O_1": null,
        "FanID": null,
        "Fan_Del": null,
        "Fan_Del_sh": null,
        "FeatureT_1": null,
        "Geo_short": null,
        "Geography": null,
        "Gradient": null,
        "Hyperlink": null,
        "ID": null,
        "Id": 11,
        "Id_1": null,
        "LENGTH": null,
        "Location": null,
        "MAPSYMBOL": null,
        "MAP_SYMBOL": null,
        "MS_ID": null,
        "MidptX": null,
        "MidptY": null,
        "Mod_names": null,
        "NAME": null,
        "NAME_1": null,
        "Name": null,
        "OBJECTID": null,
        "OBJECTID_1": null,
        "ORDERBY": null,
        "ORIG_FID": null,
        "Offset": null,
        "PATTERNID": null,
        "PERSON": null,
        "PMLABEL": null,
        "PM_NAME": null,
        "PM_NAME_NE": null,
        "Pattern": null,
        "Profile": null,
        "REGION": null,
        "SECTIONARC": null,
        "SECTION_AB": null,
        "SOURCE": null,
        "STRAT_INTE": null,
        "SectionArc": "North Bitterwell_Hogue",
        "Shape_Ar_1": null,
        "Shape_Area": null,
        "Shape_Le_1": null,
        "Shape_Leng": null,
        "Shape_Length": null,
        "Stop": null,
        "Stop_Num": null,
        "Symbology": null
      }
    },
    {
      "type": "Feature",
      "geometry": {
        "type": "Polygon",
        "coordinates": [
          [
            [
              -104.73075803301222,
              31.624947062715975
            ],
            [
              -104.72607142414141,
              31.590134121600826
            ],
            [
              -104.73854218499476,
              31.580532453036273
            ],
            [
              -104.74933666643402,
              31.570516592696258
            ],
            [
              -104.76943865566973,
              31.56869015923494
            ],
            [
              -104.79640975965094,
              31.576148928832904
            ],
            [
              -104.79981545454832,
              31.616200872652254
            ],
            [
              -104.78856163571787,
              31.625286814849773
            ],
            [
              -104.73075803301222,
              31.624947062715975
            ]
          ]
        ]
      },
      "properties": {
        "Abbrev": null,
        "Alpha": null,
        "Area": null,
        "CS_ID": null,
        "CYCLE": null,
        "CycleDsolv": null,
        "DESCRIPT": null,
        "FEATUREKEY": 13.0,
        "FEATUREK_1": null,
        "FEATURETYP": "Map_Filter",
        "FID_": null,
        "FID_Cross_": null,
        "FID_FanGeo": null,
        "FID_Fan_De": null,
        "FID_GIS_Re": null,
        "FID_Photo_": null,
        "FID_ftrip_": null,
        "FID_measur": null,
        "FID_patter": null,
        "FOURTH_ORD": null,
        "FOURTH_O_1": null,
        "FanID": null,
        "Fan_Del": null,
        "Fan_Del_sh": null,
        "FeatureT_1": null,
        "Geo_short": null,
        "Geography": null,
        "Gradient": null,
        "Hyperlink": null,
        "ID": null,
        "Id": 12,
        "Id_1": null,
        "LENGTH": null,
        "Location": null,
        "MAPSYMBOL": null,
        "MAP_SYMBOL": null,
        "MS_ID": null,
        "MidptX": null,
        "MidptY": null,
        "Mod_names": null,
        "NAME": null,
        "NAME_1": null,
        "Name": null,
        "OBJECTID": null,
        "OBJECTID_1": null,
        "ORDERBY": null,
        "ORIG_FID": null,
        "Offset": null,
        "PATTERNID": null,
        "PERSON": null,
        "PMLABEL": null,
        "PM_NAME": null,
        "PM_NAME_NE": null,
        "Pattern": null,
        "Profile": null,
        "REGION": null,
        "SECTIONARC": null,
        "SECTION_AB": null,
        "SOURCE": null,
        "STRAT_INTE": null,
        "SectionArc": "Bitterwell Mountain",
        "Shape_Ar_1": null,
        "Shape_Area": null,
        "Shape_Le_1": null,
        "Shape_Leng": null,
        "Shape_Length": null,
        "Stop": null,
        "Stop_Num": null,
        "Symbology": null
      }
    },
    {
      "type": "Feature",
      "geometry": {
        "type": "Polygon",
        "coordinates": [
          [
            [
              -104.6654999377463,
              31.632575731770014
            ],
            [
              -104.67506694701721,
              31.598146048094087
            ],
            [
              -104.69708647620668,
              31.59796875485497
            ],
            [
              -104.71733753284089,
              31.5946634242957
            ],
            [
              -104.72607142414141,
              31.590134121600826
            ],
            [
              -104.73074854176937,
              31.62494343188055
            ],
            [
              -104.73369081788805,
              31.65279814257207
            ],
            [
              -104.6654999377463,
              31.632575731770014
            ]
          ]
        ]
      },
      "properties": {
        "Abbrev": null,
        "Alpha": null,
        "Area": null,
        "CS_ID": null,
        "CYCLE": null,
        "CycleDsolv": null,
        "DESCRIPT": null,
        "FEATUREKEY": 14.0,
        "FEATUREK_1": null,
        "FEATURETYP": "Map_Filter",
        "FID_": null,
        "FID_Cross_": null,
        "FID_FanGeo": null,
        "FID_Fan_De": null,
        "FID_GIS_Re": null,
        "FID_Photo_": null,
        "FID_ftrip_": null,
        "FID_measur": null,
        "FID_patter": null,
        "FOURTH_ORD": null,
        "FOURTH_O_1": null,
        "FanID": null,
        "Fan_Del": null,
        "Fan_Del_sh": null,
        "FeatureT_1": null,
        "Geo_short": null,
        "Geography": null,
        "Gradient": null,
        "Hyperlink": null,
        "ID": null,
        "Id": 13,
        "Id_1": null,
        "LENGTH": null,
        "Location": null,
        "MAPSYMBOL": null,
        "MAP_SYMBOL": null,
        "MS_ID": null,
        "MidptX": null,
        "MidptY": null,
        "Mod_names": null,
        "NAME": null,
        "NAME_1": null,
        "Name": null,
        "OBJECTID": null,
        "OBJECTID_1": null,
        "ORDERBY": null,
        "ORIG_FID": null,
        "Offset": null,
        "PATTERNID": null,
        "PERSON": null,
        "PMLABEL": null,
        "PM_NAME": null,
        "PM_NAME_NE": null,
        "Pattern": null,
        "Profile": null,
        "REGION": null,
        "SECTIONARC": null,
        "SECTION_AB": null,
        "SOURCE": null,
        "STRAT_INTE": null,
        "SectionArc": "Cookie_NOC",
        "Shape_Ar_1": null,
        "Shape_Area": null,
        "Shape_Le_1": null,
        "Shape_Leng": null,
        "Shape_Length": null,
        "Stop": null,
        "Stop_Num": null,
        "Symbology": null
      }
    },
    {
      "type": "Feature",
      "geometry": {
        "type": "Polygon",
        "coordinates": [
          [
            [
              -104.61382549418934,
              31.46901464955368
            ],
            [
              -104.60269647362811,
              31.42031214198079
            ],
            [
              -104.61204144266733,
              31.411294330091465
            ],
            [
              -104.65215797442502,
              31.46258252655009
            ],
            [
              -104.65823781474148,
              31.485872546824172
            ],
            [
              -104.66187725317538,
              31.497291387160118
            ],
            [
              -104.63467253364166,
              31.505684448555346
            ],
            [
              -104.6241523782535,
              31.507736101290664
            ],
            [
              -104.61713236629589,
              31.486008024669772
            ],
            [
              -104.61382549418934,
              31.46901464955368
            ]
          ]
        ]
      },
      "properties": {
        "Abbrev": null,
        "Alpha": null,
        "Area": null,
        "CS_ID": null,
        "CYCLE": null,
        "CycleDsolv": null,
        "DESCRIPT": null,
        "FEATUREKEY": 15.0,
        "FEATUREK_1": null,
        "FEATURETYP": "Map_Filter",
        "FID_": null,
        "FID_Cross_": null,
        "FID_FanGeo": null,
        "FID_Fan_De": null,
        "FID_GIS_Re": null,
        "FID_Photo_": null,
        "FID_ftrip_": null,
        "FID_measur": null,
        "FID_patter": null,
        "FOURTH_ORD": null,
        "FOURTH_O_1": null,
        "FanID": null,
        "Fan_Del": null,
        "Fan_Del_sh": null,
        "FeatureT_1": null,
        "Geo_short": null,
        "Geography": null,
        "Gradient": null,
        "Hyperlink": null,
        "ID": null,
        "Id": 17,
        "Id_1": null,
        "LENGTH": null,
        "Location": null,
        "MAPSYMBOL": null,
        "MAP_SYMBOL": null,
        "MS_ID": null,
        "MidptX": null,
        "MidptY": null,
        "Mod_names": null,
        "NAME": null,
        "NAME_1": null,
        "Name": null,
        "OBJECTID": null,
        "OBJECTID_1": null,
        "ORDERBY": null,
        "ORIG_FID": null,
        "Offset": null,
        "PATTERNID": null,
        "PERSON": null,
        "PMLABEL": null,
        "PM_NAME": null,
        "PM_NAME_NE": null,
        "Pattern": null,
        "Profile": null,
        "REGION": null,
        "SECTIONARC": null,
        "SECTION_AB": null,
        "SOURCE": null,
        "STRAT_INTE": null,
        "SectionArc": "Delaware Mountain Ranch",
        "Shape_Ar_1": null,
        "Shape_Area": null,
        "Shape_Le_1": null,
        "Shape_Leng": null,
        "Shape_Length": null,
        "Stop": null,
        "Stop_Num": null,
        "Symbology": null
      }
    },
    {
      "type": "Feature",
      "geometry": {
        "type": "Polygon",
        "coordinates": [
          [
            [
              -104.69102412204937,
              31.540567071739012
            ],
            [
              -104.67232128632318,
              31.55182529008049
            ],
            [
              -104.65585906933497,
              31.561736634975997
            ],
            [
              -104.64691971414811,
              31.556073591967735
            ],
            [
              -104.64508497213207,
              31.54759683944895
            ],
            [
              -104.63972593049246,
              31.533515670977177
            ],
            [
              -104.62783206133224,
              31.520854040203062
            ],
            [
              -104.6241523782535,
              31.507736101290664
            ],
            [
              -104.63467253364166,
              31.505684448555346
            ],
            [
              -104.66187725317538,
              31.497291387160118
            ],
            [
              -104.69102412204937,
              31.540567071739012
            ]
          ]
        ]
      },
      "properties": {
        "Abbrev": null,
        "Alpha": null,
        "Area": null,
        "CS_ID": null,
        "CYCLE": null,
        "CycleDsolv": null,
        "DESCRIPT": null,
        "FEATUREKEY": 16.0,
        "FEATUREK_1": null,
        "FEATURETYP": "Map_Filter",
        "FID_": null,
        "FID_Cross_": null,
        "FID_FanGeo": null,
        "FID_Fan_De": null,
        "FID_GIS_Re": null,
        "FID_Photo_": null,
        "FID_ftrip_": null,
        "FID_measur": null,
        "FID_patter": null,
        "FOURTH_ORD": null,
        "FOURTH_O_1": null,
        "FanID": null,
        "Fan_Del": null,
        "Fan_Del_sh": null,
        "FeatureT_1": null,
        "Geo_short": null,
        "Geography": null,
        "Gradient": null,
        "Hyperlink": null,
        "ID": null,
        "Id": 16,
        "Id_1": null,
        "LENGTH": null,
        "Location": null,
        "MAPSYMBOL": null,
        "MAP_SYMBOL": null,
        "MS_ID": null,
        "MidptX": null,
        "MidptY": null,
        "Mod_names": null,
        "NAME": null,
        "NAME_1": null,
        "Name": null,
        "OBJECTID": null,
        "OBJECTID_1": null,
        "ORDERBY": null,
        "ORIG_FID": null,
        "Offset": null,
        "PATTERNID": null,
        "PERSON": null,
        "PMLABEL": null,
        "PM_NAME": null,
        "PM_NAME_NE": null,
        "Pattern": null,
        "Profile": null,
        "REGION": null,
        "SECTIONARC": null,
        "SECTION_AB": null,
        "SOURCE": null,
        "STRAT_INTE": null,
        "SectionArc": "Goat Canyon",
        "Shape_Ar_1": null,
        "Shape_Area": null,
        "Shape_Le_1": null,
        "Shape_Leng": null,
        "Shape_Length": null,
        "Stop": null,
        "Stop_Num": null,
        "Symbology": null
      }
    },
    {
      "type": "Feature",
      "geometry": {
        "type": "Polygon",
        "coordinates": [
          [
            [
              -104.68030103911154,
              31.579010025731893
            ],
            [
              -104.6695912332647,
              31.58512952023699
            ],
            [
              -104.66457345881737,
              31.578447321399317
            ],
            [
              -104.6612517797072,
              31.56756928308999
            ],
            [
              -104.65585906933497,
              31.561736634975997
            ],
            [
              -104.67232128632318,
              31.55182529008049
            ],
            [
              -104.69102412204937,
              31.540567071739012
            ],
            [
              -104.7025272815086,
              31.543425169818825
            ],
            [
              -104.71445881479204,
              31.552670362551563
            ],
            [
              -104.7284035156702,
              31.5624189389215
            ],
            [
              -104.71750872265939,
              31.565690361658387
            ],
            [
              -104.68030103911154,
              31.579010025731893
            ]
          ]
        ]
      },
      "properties": {
        "Abbrev": null,
        "Alpha": null,
        "Area": null,
        "CS_ID": null,
        "CYCLE": null,
        "CycleDsolv": null,
        "DESCRIPT": null,
        "FEATUREKEY": 17.0,
        "FEATUREK_1": null,
        "FEATURETYP": "Map_Filter",
        "FID_": null,
        "FID_Cross_": null,
        "FID_FanGeo": null,
        "FID_Fan_De": null,
        "FID_GIS_Re": null,
        "FID_Photo_": null,
        "FID_ftrip_": null,
        "FID_measur": null,
        "FID_patter": null,
        "FOURTH_ORD": null,
        "FOURTH_O_1": null,
        "FanID": null,
        "Fan_Del": null,
        "Fan_Del_sh": null,
        "FeatureT_1": null,
        "Geo_short": null,
        "Geography": null,
        "Gradient": null,
        "Hyperlink": null,
        "ID": null,
        "Id": 15,
        "Id_1": null,
        "LENGTH": null,
        "Location": null,
        "MAPSYMBOL": null,
        "MAP_SYMBOL": null,
        "MS_ID": null,
        "MidptX": null,
        "MidptY": null,
        "Mod_names": null,
        "NAME": null,
        "NAME_1": null,
        "Name": null,
        "OBJECTID": null,
        "OBJECTID_1": null,
        "ORDERBY": null,
        "ORIG_FID": null,
        "Offset": null,
        "PATTERNID": null,
        "PERSON": null,
        "PMLABEL": null,
        "PM_NAME": null,
        "PM_NAME_NE": null,
        "Pattern": null,
        "Profile": null,
        "REGION": null,
        "SECTIONARC": null,
        "SECTION_AB": null,
        "SOURCE": null,
        "STRAT_INTE": null,
        "SectionArc": "Janes_SAS",
        "Shape_Ar_1": null,
        "Shape_Area": null,
        "Shape_Le_1": null,
        "Shape_Leng": null,
        "Shape_Length": null,
        "Stop": null,
        "Stop_Num": null,
        "Symbology": null
      }
    }
  ]
}